{
  "type": "FeatureCollection", 
  "features": [
    {
      "geometry": {
        "type": "MultiPolygon", 
        "coordinates": [
          [
            [
              [
                -69.06355980714693, 
                47.29080933721545
              ], 
              [
                -69.05438410454505, 
                47.29421943204534
              ], 
              [
                -68.98330321700772, 
                47.315200163831136
              ], 
              [
                -68.91000015778225, 
                47.32985034231538
              ], 
              [
                -68.83643878765066, 
                47.34377721109087
              ], 
              [
                -68.76463433166896, 
                47.36263898909708
              ], 
              [
                -68.7194433149464, 
                47.377573531082305
              ], 
              [
                -68.67425226570666, 
                47.3924046457692
              ], 
              [
                -68.62906126504997, 
                47.407287548666076
              ], 
              [
                -68.58384434822537, 
                47.422247787699305
              ], 
              [
                -68.55268347823075, 
                47.43687226165428
              ], 
              [
                -68.5223235872818, 
                47.45741367220358
              ], 
              [
                -68.49304885748107, 
                47.48009955364035
              ], 
              [
                -68.46498858192416, 
                47.5010027331743
              ], 
              [
                -68.4363339638176, 
                47.518391770102426
              ], 
              [
                -68.40809281426398, 
                47.53629770130613
              ], 
              [
                -68.38682795990182, 
                47.55828601738824
              ], 
              [
                -68.37915407652785, 
                47.5879484425159
              ], 
              [
                -68.37786207442544, 
                47.60807620414627
              ], 
              [
                -68.37786207655552, 
                47.6292118698472
              ], 
              [
                -68.37786207272583, 
                47.66657392220791
              ], 
              [
                -68.37786208880755, 
                47.70396185748506
              ], 
              [
                -68.3778621353544, 
                47.74137570042587
              ], 
              [
                -68.37786205339432, 
                47.778763412587345
              ], 
              [
                -68.37786213451301, 
                47.8161514963212
              ], 
              [
                -68.37786213517185, 
                47.853565234691445
              ], 
              [
                -68.37786213687271, 
                47.89092729857365
              ], 
              [
                -68.37786209372717, 
                47.92834093787567
              ], 
              [
                -68.3448150158736, 
                47.92834093787567
              ], 
              [
                -68.31176793712066, 
                47.92834093787567
              ], 
              [
                -68.278720859267, 
                47.92834093787567
              ], 
              [
                -68.2456737805141, 
                47.92834093787567
              ], 
              [
                -68.21260086423872, 
                47.92834093787567
              ], 
              [
                -68.17955378548575, 
                47.92834093787567
              ], 
              [
                -68.14650670673284, 
                47.92834093787567
              ], 
              [
                -68.11345962797988, 
                47.92834093787567
              ], 
              [
                -68.11345968415468, 
                47.93699686829361
              ], 
              [
                -68.1134595812797, 
                47.94565243688956
              ], 
              [
                -68.11345970256605, 
                47.95428267562016
              ], 
              [
                -68.11345957625683, 
                47.96296403052989
              ], 
              [
                -68.11345965007527, 
                47.97159416150213
              ], 
              [
                -68.1134595885826, 
                47.98024982507495
              ], 
              [
                -68.11345964028767, 
                47.98890574426512
              ], 
              [
                -68.11345964269584, 
                47.99753571422114
              ], 
              [
                -68.05276567304414, 
                47.99753571422114
              ], 
              [
                -67.99209754181412, 
                47.99753571422114
              ], 
              [
                -67.93142940968471, 
                47.99753571422114
              ], 
              [
                -67.87076127845474, 
                47.99753571422114
              ], 
              [
                -67.81009314722468, 
                47.99753571422114
              ], 
              [
                -67.74942501599466, 
                47.99753571422114
              ], 
              [
                -67.68875688386527, 
                47.99753571422114
              ], 
              [
                -67.62811459105701, 
                47.99753571422114
              ], 
              [
                -67.61284420523711, 
                47.99753571422114
              ], 
              [
                -67.6115005563278, 
                47.992419606235465
              ], 
              [
                -67.6092268011591, 
                47.9809474559293
              ], 
              [
                -67.60700477208175, 
                47.9687519486026
              ], 
              [
                -67.60576454119007, 
                47.96174980293381
              ], 
              [
                -67.60677228141007, 
                47.95092370159088
              ], 
              [
                -67.60894261056856, 
                47.94332708123143
              ], 
              [
                -67.6059712922082, 
                47.938056260948194
              ], 
              [
                -67.59157929434409, 
                47.934335303635194
              ], 
              [
                -67.56690388171602, 
                47.93035640953379
              ], 
              [
                -67.54393362589485, 
                47.92570534190717
              ], 
              [
                -67.52119607146226, 
                47.91981440322851
              ], 
              [
                -67.49706320218067, 
                47.911933804076135
              ], 
              [
                -67.4827229416545, 
                47.90606841291079
              ], 
              [
                -67.46864110737502, 
                47.899557167046225
              ], 
              [
                -67.45448176719306, 
                47.89330432417551
              ], 
              [
                -67.43980561981151, 
                47.88839496911898
              ], 
              [
                -67.43135652235361, 
                47.88627623624974
              ], 
              [
                -67.42293336367398, 
                47.88410605317935
              ], 
              [
                -67.41487180068015, 
                47.88126375997211
              ], 
              [
                -67.40714617605484, 
                47.87712964812342
              ], 
              [
                -67.40172017266103, 
                47.87098020585721
              ], 
              [
                -67.39885206063022, 
                47.863280255023504
              ], 
              [
                -67.39616488930187, 
                47.855735501989294
              ], 
              [
                -67.39130735659063, 
                47.84989618482759
              ], 
              [
                -67.3637121189744, 
                47.83927662587949
              ], 
              [
                -67.35089641620732, 
                47.849586195796405
              ], 
              [
                -67.34384255978516, 
                47.86979162631636
              ], 
              [
                -67.33355891998222, 
                47.88893767535671
              ], 
              [
                -67.31989045481825, 
                47.89614642501497
              ], 
              [
                -67.3044392100358, 
                47.89583638752835
              ], 
              [
                -67.28836794463338, 
                47.89258101356956
              ], 
              [
                -67.27268411745003, 
                47.89092729857365
              ], 
              [
                -67.25772382621327, 
                47.89242599665695
              ], 
              [
                -67.24604483041165, 
                47.89405352420373
              ], 
              [
                -67.23421093812112, 
                47.89374348891427
              ], 
              [
                -67.2186821715438, 
                47.88937683360408
              ], 
              [
                -67.20286917722699, 
                47.885294382066135
              ], 
              [
                -67.18803805498936, 
                47.88498435596755
              ], 
              [
                -67.17325862086997, 
                47.887464882041314
              ], 
              [
                -67.15760072271458, 
                47.89159913843574
              ], 
              [
                -67.14413896810912, 
                47.896379107437944
              ], 
              [
                -67.1338553813461, 
                47.9016759951904
              ], 
              [
                -67.12450198383196, 
                47.90741216308026
              ], 
              [
                -67.11383070564597, 
                47.913406411277016
              ], 
              [
                -67.09517550422754, 
                47.92097698588864
              ], 
              [
                -67.07313550379443, 
                47.92663554955557
              ], 
              [
                -67.05037203278384, 
                47.92906433619382
              ], 
              [
                -67.0296498356034, 
                47.92699740050812
              ], 
              [
                -67.01231244126393, 
                47.91785078317566
              ], 
              [
                -66.987352683462, 
                47.90340712759874
              ], 
              [
                -66.96164359204525, 
                47.89454446544212
              ], 
              [
                -66.94190326136005, 
                47.90229608275484
              ], 
              [
                -66.93924187402905, 
                47.91712710418274
              ], 
              [
                -66.94567560104315, 
                47.93211329316347
              ], 
              [
                -66.94939626988179, 
                47.94859799599155
              ], 
              [
                -66.93851850509785, 
                47.96782191593545
              ], 
              [
                -66.91913984290882, 
                47.981490332877776
              ], 
              [
                -66.89418007299805, 
                47.99208387922618
              ], 
              [
                -66.86769582584294, 
                47.9977422718299
              ], 
              [
                -66.84356301083663, 
                47.996734765349764
              ], 
              [
                -66.84300692389975, 
                47.99681214715045
              ], 
              [
                -66.834095873318, 
                47.99290608737821
              ], 
              [
                -66.81753494152287, 
                47.99152248533521
              ], 
              [
                -66.78644772924821, 
                47.992173591364526
              ], 
              [
                -66.74990803710725, 
                47.98578529260446
              ], 
              [
                -66.73151613519693, 
                47.98651777264056
              ], 
              [
                -66.68578045769507, 
                48.007635935473424
              ], 
              [
                -66.61351478578507, 
                48.010850346019424
              ], 
              [
                -66.58438072361012, 
                48.02317956928783
              ], 
              [
                -66.55760654021768, 
                48.03819399750354
              ], 
              [
                -66.38589436079096, 
                48.075140751764685
              ], 
              [
                -66.35529538773147, 
                48.069281341884455
              ], 
              [
                -66.36192783428265, 
                48.04059472502838
              ], 
              [
                -66.3451228909847, 
                48.02142984788793
              ], 
              [
                -66.31899982634145, 
                48.01105382994061
              ], 
              [
                -66.28937739869812, 
                48.00665922536177
              ], 
              [
                -66.26195221688134, 
                48.00584530276073
              ], 
              [
                -66.25422121076029, 
                48.00108482582231
              ], 
              [
                -66.24673417081016, 
                47.991766649926525
              ], 
              [
                -66.23835202643143, 
                47.98517489397335
              ], 
              [
                -66.2159318256888, 
                47.99323164175033
              ], 
              [
                -66.20225995378588, 
                47.99017989200915
              ], 
              [
                -66.17690993094236, 
                47.97911197822513
              ], 
              [
                -65.97085523379369, 
                47.92389548309219
              ], 
              [
                -65.8661189388159, 
                47.916937554825346
              ], 
              [
                -65.81786051787095, 
                47.90741616968394
              ], 
              [
                -65.7722061256644, 
                47.88292050264207
              ], 
              [
                -65.74120035869691, 
                47.84857827147463
              ], 
              [
                -65.68968661222404, 
                47.724676728349515
              ], 
              [
                -65.67784579780047, 
                47.70868553287934
              ], 
              [
                -65.66364502606355, 
                47.695502115092836
              ], 
              [
                -65.62881429130853, 
                47.670640448543864
              ], 
              [
                -65.66364501815195, 
                47.65745684941109
              ], 
              [
                -65.66917882899884, 
                47.65635811385664
              ], 
              [
                -65.66710370109959, 
                47.64533125537062
              ], 
              [
                -65.65811118046813, 
                47.6376408072728
              ], 
              [
                -65.64631098299525, 
                47.63080470978248
              ], 
              [
                -65.63573159566712, 
                47.622259882195024
              ], 
              [
                -65.60606844288121, 
                47.656439410296464
              ], 
              [
                -65.59105383339359, 
                47.6691755072885
              ], 
              [
                -65.56676181128687, 
                47.67747621667863
              ], 
              [
                -65.49901284496187, 
                47.67926671652551
              ], 
              [
                -65.47740631806002, 
                47.68370174488782
              ], 
              [
                -65.43736725901304, 
                47.70624406993917
              ], 
              [
                -65.36363683752677, 
                47.762030316083184
              ], 
              [
                -65.28498284753128, 
                47.78168359085277
              ], 
              [
                -65.20933999002547, 
                47.81968825852234
              ], 
              [
                -65.02574622090187, 
                47.84959543999742
              ], 
              [
                -64.97777256171639, 
                47.84198632749419
              ], 
              [
                -65.0545547927996, 
                47.80304590823136
              ], 
              [
                -65.0733536899177, 
                47.77989340327666
              ], 
              [
                -65.06065826762041, 
                47.78131729622063
              ], 
              [
                -65.03966221703973, 
                47.78624090053687
              ], 
              [
                -64.99022381644444, 
                47.79063561414823
              ], 
              [
                -64.90611727151482, 
                47.81073628620248
              ], 
              [
                -64.85627196823505, 
                47.81586341797015
              ], 
              [
                -64.82628330874003, 
                47.81549708130434
              ], 
              [
                -64.80003822822894, 
                47.80927158369648
              ], 
              [
                -64.78595943071522, 
                47.79356515113517
              ], 
              [
                -64.78970292572262, 
                47.77130767613639
              ], 
              [
                -64.80943766310112, 
                47.76142007082627
              ], 
              [
                -64.86046299145595, 
                47.759385415557574
              ], 
              [
                -64.86046305492128, 
                47.75254962975342
              ], 
              [
                -64.84203035083827, 
                47.748114199844316
              ], 
              [
                -64.80264234245905, 
                47.745957654061826
              ], 
              [
                -64.78595938463268, 
                47.738958921398975
              ], 
              [
                -64.7833552494989, 
                47.73322169053274
              ], 
              [
                -64.78233802397212, 
                47.716620193549765
              ], 
              [
                -64.77847250110963, 
                47.71100504885786
              ], 
              [
                -64.7639054588213, 
                47.70807539627892
              ], 
              [
                -64.75767977186221, 
                47.71491109143528
              ], 
              [
                -64.75690668379771, 
                47.72308986001803
              ], 
              [
                -64.758656338802, 
                47.724676728349515
              ], 
              [
                -64.75743571157075, 
                47.732245269505164
              ], 
              [
                -64.76081293601477, 
                47.74546942238615
              ], 
              [
                -64.75865641386646, 
                47.75254962975342
              ], 
              [
                -64.75300039354055, 
                47.75726945037825
              ], 
              [
                -64.73570710713835, 
                47.76447161762468
              ], 
              [
                -64.73078367210115, 
                47.76561110387237
              ], 
              [
                -64.71825109419179, 
                47.76158272062655
              ], 
              [
                -64.6801651452452, 
                47.741319023253624
              ], 
              [
                -64.66860912586006, 
                47.73212298608651
              ], 
              [
                -64.68488519388448, 
                47.7227236371333
              ], 
              [
                -64.73936930359915, 
                47.70140216587196
              ], 
              [
                -64.7512101057351, 
                47.700751081867885
              ], 
              [
                -64.75763917568106, 
                47.68638755419915
              ], 
              [
                -64.77334547757205, 
                47.68329491816269
              ], 
              [
                -64.79336497616724, 
                47.68305069920424
              ], 
              [
                -64.81261142070915, 
                47.67747621667863
              ], 
              [
                -64.80915278477538, 
                47.674546582768315
              ], 
              [
                -64.7996313549246, 
                47.66380452753579
              ], 
              [
                -64.8087052485311, 
                47.65863688599928
              ], 
              [
                -64.81175700403256, 
                47.65326578599561
              ], 
              [
                -64.80870526498205, 
                47.647935428659736
              ], 
              [
                -64.79963126636754, 
                47.642686150233416
              ], 
              [
                -64.81403557640014, 
                47.621568017594754
              ], 
              [
                -64.82884682389486, 
                47.60594313691567
              ], 
              [
                -64.8678278994453, 
                47.574448888705156
              ], 
              [
                -64.87584388074438, 
                47.57050202420821
              ], 
              [
                -64.88483640772165, 
                47.56720615992471
              ], 
              [
                -64.89216058386509, 
                47.56150944153922
              ], 
              [
                -64.89517169246102, 
                47.55023838048438
              ], 
              [
                -64.89549722381498, 
                47.54258866648472
              ], 
              [
                -64.89712481579858, 
                47.53705478348394
              ], 
              [
                -64.90884357921003, 
                47.51984290188457
              ], 
              [
                -64.87409423019653, 
                47.51984290188457
              ], 
              [
                -64.88955645805007, 
                47.49970127296454
              ], 
              [
                -64.92446853132193, 
                47.46747462215119
              ], 
              [
                -64.92931067997975, 
                47.450913813629946
              ], 
              [
                -64.91515048861757, 
                47.46478905408126
              ], 
              [
                -64.90200759300673, 
                47.47150294137678
              ], 
              [
                -64.88711505424547, 
                47.476548609302526
              ], 
              [
                -64.86782791451922, 
                47.48570380796714
              ], 
              [
                -64.89321852641322, 
                47.42186100314908
              ], 
              [
                -64.90884357739645, 
                47.35533280580325
              ], 
              [
                -64.9122615051188, 
                47.36579006260408
              ], 
              [
                -64.91169189134409, 
                47.37592201561976
              ], 
              [
                -64.9079483967429, 
                47.38597246044028
              ], 
              [
                -64.9058732005707, 
                47.394476689582795
              ], 
              [
                -64.90884357334326, 
                47.40253331689244
              ], 
              [
                -64.92788651473622, 
                47.39337797696711
              ], 
              [
                -64.93911696158943, 
                47.37877017768209
              ], 
              [
                -64.94815021156639, 
                47.36163975861439
              ], 
              [
                -64.96035725098187, 
                47.3447940726245
              ], 
              [
                -64.96174069907315, 
                47.33193596445435
              ], 
              [
                -64.95840412339363, 
                47.312323363400694
              ], 
              [
                -64.95962478909816, 
                47.294297556779675
              ], 
              [
                -64.97398842093847, 
                47.286444427157356
              ], 
              [
                -65.01992756412879, 
                47.28237545647377
              ], 
              [
                -65.04295810845903, 
                47.27521386467591
              ], 
              [
                -65.061268658228, 
                47.251939132373835
              ], 
              [
                -65.09845946011161, 
                47.23643631629707
              ], 
              [
                -65.10684158338502, 
                47.2215843341853
              ], 
              [
                -65.12254800271663, 
                47.202744911802654
              ], 
              [
                -65.33145098044237, 
                47.10057201780056
              ], 
              [
                -65.36754306685572, 
                47.09463117631001
              ], 
              [
                -65.36754311871643, 
                47.0877953653579
              ], 
              [
                -65.28433181202134, 
                47.08087794106063
              ], 
              [
                -65.24478102642233, 
                47.08189518182615
              ], 
              [
                -65.20303297593408, 
                47.09463117631001
              ], 
              [
                -65.20457924818018, 
                47.080471137875634
              ], 
              [
                -65.21027582201381, 
                47.064764659951685
              ], 
              [
                -65.21320551260614, 
                47.05206935325587
              ], 
              [
                -65.20645099649822, 
                47.046779740012134
              ], 
              [
                -65.1490372520117, 
                47.05369703876776
              ], 
              [
                -65.06309973142956, 
                47.090562223513274
              ], 
              [
                -65.03233798901543, 
                47.09463117631001
              ], 
              [
                -65.01500401709602, 
                47.08852768980006
              ], 
              [
                -64.99828041572428, 
                47.06504957712756
              ], 
              [
                -64.9845271549073, 
                47.05988191990372
              ], 
              [
                -64.96524000794977, 
                47.06309634744692
              ], 
              [
                -64.9546606126929, 
                47.07078685514357
              ], 
              [
                -64.94709224649401, 
                47.080064181526325
              ], 
              [
                -64.93675698557986, 
                47.0877953653579
              ], 
              [
                -64.90855873174296, 
                47.0927595283997
              ], 
              [
                -64.82542884622397, 
                47.08909741325545
              ], 
              [
                -64.79963130758347, 
                47.081610403263234
              ], 
              [
                -64.82551021769532, 
                47.063544006347136
              ], 
              [
                -64.8211156851338, 
                47.0413678965097
              ], 
              [
                -64.80760658255457, 
                47.01524487756291
              ], 
              [
                -64.80646723401294, 
                46.98541896776347
              ], 
              [
                -64.81688393640742, 
                46.97711827627465
              ], 
              [
                -64.85265052569343, 
                46.96271394800184
              ], 
              [
                -64.89517168432872, 
                46.916489989114154
              ], 
              [
                -64.90583245884488, 
                46.88686751312525
              ], 
              [
                -64.90436761864207, 
                46.858750660428406
              ], 
              [
                -64.89488682592965, 
                46.83209864555231
              ], 
              [
                -64.88149981453203, 
                46.80662672100725
              ], 
              [
                -64.86489825319987, 
                46.78318922515355
              ], 
              [
                -64.84430905000612, 
                46.763169666489176
              ], 
              [
                -64.79214435646048, 
                46.72471756818972
              ], 
              [
                -64.81891844210492, 
                46.724758249854375
              ], 
              [
                -64.83942620928617, 
                46.716864258823946
              ], 
              [
                -64.85191811431042, 
                46.70083246441526
              ], 
              [
                -64.854237424428, 
                46.67633695726682
              ], 
              [
                -64.84740148642902, 
                46.67633695726682
              ], 
              [
                -64.83267167633888, 
                46.69936757340409
              ], 
              [
                -64.80190996157407, 
                46.695624094904225
              ], 
              [
                -64.75121007040629, 
                46.670070656332435
              ], 
              [
                -64.75792393071401, 
                46.69029362175336
              ], 
              [
                -64.74917559309591, 
                46.699815191093215
              ], 
              [
                -64.73216712176752, 
                46.69879792090573
              ], 
              [
                -64.71361243620666, 
                46.68716055448183
              ], 
              [
                -64.70677652006209, 
                46.67226803080431
              ], 
              [
                -64.70539306180619, 
                46.6517602296375
              ], 
              [
                -64.71027583112658, 
                46.61485419946635
              ], 
              [
                -64.71983799942275, 
                46.57632065373233
              ], 
              [
                -64.71739664420906, 
                46.555975728310194
              ], 
              [
                -64.700306771289, 
                46.54722728421528
              ], 
              [
                -64.69025632802895, 
                46.53864170400493
              ], 
              [
                -64.67975826424436, 
                46.51959869311972
              ], 
              [
                -64.67772374451782, 
                46.500555687325786
              ], 
              [
                -64.69318602990666, 
                46.49201087871674
              ], 
              [
                -64.7021378537749, 
                46.489813615880216
              ], 
              [
                -64.70872960556605, 
                46.48509345344515
              ], 
              [
                -64.71108964567432, 
                46.480454814190004
              ], 
              [
                -64.70714270533794, 
                46.478338929847446
              ], 
              [
                -64.70189365613334, 
                46.47646712036404
              ], 
              [
                -64.69420327735548, 
                46.46743404438442
              ], 
              [
                -64.68976805074426, 
                46.464016062364536
              ], 
              [
                -64.68219970411667, 
                46.463365051308266
              ], 
              [
                -64.6768692464033, 
                46.46645736499564
              ], 
              [
                -64.6727595588006, 
                46.47003812749706
              ], 
              [
                -64.6686091600391, 
                46.47085190758713
              ], 
              [
                -64.6546524968566, 
                46.46369055667963
              ], 
              [
                -64.63621986804606, 
                46.45079176415346
              ], 
              [
                -64.6202286147403, 
                46.43512596820505
              ], 
              [
                -64.61339269038048, 
                46.41929755134944
              ], 
              [
                -64.61461339237403, 
                46.38222886127626
              ], 
              [
                -64.6188044780116, 
                46.367987339408344
              ], 
              [
                -64.62767495116118, 
                46.354152779072585
              ], 
              [
                -64.64549718194301, 
                46.340399435675955
              ], 
              [
                -64.66356361268741, 
                46.33673738878314
              ], 
              [
                -64.68285069016888, 
                46.33510970569978
              ], 
              [
                -64.70400956810306, 
                46.32750071575014
              ], 
              [
                -64.68342036331852, 
                46.32851793666827
              ], 
              [
                -64.6725968144622, 
                46.327378661709645
              ], 
              [
                -64.66519118927663, 
                46.323797866976555
              ], 
              [
                -64.65721594980721, 
                46.32103099151621
              ], 
              [
                -64.64720621241946, 
                46.32436765136293
              ], 
              [
                -64.62767491417257, 
                46.33364487420956
              ], 
              [
                -64.5889379807391, 
                46.33535397267222
              ], 
              [
                -64.57494054640914, 
                46.338690465360415
              ], 
              [
                -64.57990472361261, 
                46.3479677696875
              ], 
              [
                -64.55850177877403, 
                46.36912674968738
              ], 
              [
                -64.53652911999522, 
                46.35146723774636
              ], 
              [
                -64.52342687307802, 
                46.32160061797198
              ], 
              [
                -64.52839106337048, 
                46.30573147014562
              ], 
              [
                -64.55532793266555, 
                46.298570063223785
              ], 
              [
                -64.56358801262374, 
                46.27968982743275
              ], 
              [
                -64.55939695292687, 
                46.22378167810908
              ], 
              [
                -64.53502357025519, 
                46.23497142920711
              ], 
              [
                -64.51402745932894, 
                46.23940660852568
              ], 
              [
                -64.40542557082597, 
                46.2381045231959
              ], 
              [
                -64.39915932014976, 
                46.236070082169334
              ], 
              [
                -64.38752193663694, 
                46.226670634027606
              ], 
              [
                -64.38060463488829, 
                46.22378167810908
              ], 
              [
                -64.37035072572834, 
                46.22374098012528
              ], 
              [
                -64.36261958069947, 
                46.226141632841454
              ], 
              [
                -64.3555395044577, 
                46.229152704285944
              ], 
              [
                -64.34715736930474, 
                46.23126865564503
              ], 
              [
                -64.25328527230896, 
                46.23444241533083
              ], 
              [
                -64.23729408828201, 
                46.23126865564503
              ], 
              [
                -64.18504796863296, 
                46.21019111663106
              ], 
              [
                -64.16274978929506, 
                46.195135771673854
              ], 
              [
                -64.16905677444743, 
                46.183457760291596
              ], 
              [
                -64.16128495843739, 
                46.17003001103128
              ], 
              [
                -64.15127520364673, 
                46.166327240509204
              ], 
              [
                -64.12743078814351, 
                46.169826552658165
              ], 
              [
                -64.1266983813739, 
                46.17413974236165
              ], 
              [
                -64.11929277240144, 
                46.18227773447935
              ], 
              [
                -64.11091060410317, 
                46.186835010475725
              ], 
              [
                -64.10411537052484, 
                46.17393628158658
              ], 
              [
                -64.0973201228893, 
                46.16852449851725
              ], 
              [
                -64.0826716685187, 
                46.159287801337825
              ], 
              [
                -64.07803301997873, 
                46.16347894101467
              ], 
              [
                -64.04967200268237, 
                46.17894114464833
              ], 
              [
                -64.03799394843836, 
                46.183457760291596
              ], 
              [
                -64.02257239673014, 
                46.185288808402596
              ], 
              [
                -63.97321530343387, 
                46.183457760291596
              ], 
              [
                -63.946278444808634, 
                46.17877837377276
              ], 
              [
                -63.894276481225425, 
                46.15664293330322
              ], 
              [
                -63.81305906143376, 
                46.14028558077799
              ], 
              [
                -63.790272580461775, 
                46.13096749060845
              ], 
              [
                -63.771107560610815, 
                46.11522046959461
              ], 
              [
                -63.791818817518966, 
                46.09951407400588
              ], 
              [
                -63.812977660332834, 
                46.09385812038233
              ], 
              [
                -63.86046301864015, 
                46.08726633952274
              ], 
              [
                -63.86652583134927, 
                46.08291246709205
              ], 
              [
                -63.88536536772248, 
                46.06574128752072
              ], 
              [
                -63.8946427153683, 
                46.05996330440255
              ], 
              [
                -63.90558835612369, 
                46.05801018644621
              ], 
              [
                -64.0637914669122, 
                46.0617536401243
              ], 
              [
                -64.0727433013916, 
                46.05996330440255
              ], 
              [
                -64.07648678753058, 
                46.05353425855636
              ], 
              [
                -64.07648678146357, 
                46.04458242008039
              ], 
              [
                -64.07970129219106, 
                46.0365257605232
              ], 
              [
                -64.09325111862637, 
                46.03261956521416
              ], 
              [
                -64.08385167997265, 
                46.02236559630255
              ], 
              [
                -64.05231687351538, 
                46.00136956497536
              ], 
              [
                -64.04272525509043, 
                45.991981162721224
              ], 
              [
                -64.05130448442816, 
                45.976832161915
              ], 
              [
                -64.07331864275123, 
                45.97316313251885
              ], 
              [
                -64.09926021439281, 
                45.97502349150452
              ], 
              [
                -64.11967240603171, 
                45.97639291801092
              ], 
              [
                -64.14101478841916, 
                45.97254306608062
              ], 
              [
                -64.15954076722221, 
                45.96375801420409
              ], 
              [
                -64.1750695367673, 
                45.95001208920465
              ], 
              [
                -64.18700680530344, 
                45.931305252165906
              ], 
              [
                -64.19850480605045, 
                45.91572479385197
              ], 
              [
                -64.21362016552176, 
                45.90404592595842
              ], 
              [
                -64.22984657589504, 
                45.893529803368594
              ], 
              [
                -64.24465187218878, 
                45.88130832081832
              ], 
              [
                -64.25237747976078, 
                45.86970691173459
              ], 
              [
                -64.25811356412966, 
                45.856632776240716
              ], 
              [
                -64.2642113800358, 
                45.84454048330254
              ], 
              [
                -64.27302222137774, 
                45.83591054356063
              ], 
              [
                -64.27328060179553, 
                45.83575550971542
              ], 
              [
                -64.27342336924423, 
                45.83566983918958
              ], 
              [
                -64.27623451318331, 
                45.84178296846859
              ], 
              [
                -64.32160396911468, 
                45.877834374741326
              ], 
              [
                -64.33470618498139, 
                45.885117908503524
              ], 
              [
                -64.34715734990233, 
                45.88865792945146
              ], 
              [
                -64.36148028618425, 
                45.88507724961488
              ], 
              [
                -64.36595619254543, 
                45.87596265379086
              ], 
              [
                -64.35912024981903, 
                45.86806876174146
              ], 
              [
                -64.33971107493177, 
                45.86815015223787
              ], 
              [
                -64.33971108095903, 
                45.860703878622424
              ], 
              [
                -64.36900794846251, 
                45.84674715348978
              ], 
              [
                -64.41954506475028, 
                45.79116449010232
              ], 
              [
                -64.44640052717273, 
                45.7787946823085
              ], 
              [
                -64.46418210745344, 
                45.7727725597831
              ], 
              [
                -64.47150630937597, 
                45.75844959919655
              ], 
              [
                -64.47484289959051, 
                45.741603899294155
              ], 
              [
                -64.4808650305649, 
                45.72789132401059
              ], 
              [
                -64.49498448985976, 
                45.7210146798877
              ], 
              [
                -64.51390540352762, 
                45.72060781634737
              ], 
              [
                -64.53254146467269, 
                45.72483957140408
              ], 
              [
                -64.54576575011505, 
                45.73159413308865
              ], 
              [
                -64.52627518393119, 
                45.7425397553105
              ], 
              [
                -64.50853431029822, 
                45.76618073431171
              ], 
              [
                -64.4955134671261, 
                45.79368721937466
              ], 
              [
                -64.49054929039819, 
                45.816717859854755
              ], 
              [
                -64.4962051986419, 
                45.82477445970518
              ], 
              [
                -64.5230199849083, 
                45.83974843722084
              ], 
              [
                -64.5314835268776, 
                45.84703196514366
              ], 
              [
                -64.53620358133365, 
                45.86147695839311
              ], 
              [
                -64.5357559969129, 
                45.873846767125805
              ], 
              [
                -64.53148352075279, 
                45.90224842157881
              ], 
              [
                -64.54841061577564, 
                45.88361238414134
              ], 
              [
                -64.56090246647864, 
                45.878729542422285
              ], 
              [
                -64.57241777747778, 
                45.885606198379406
              ], 
              [
                -64.62979081424251, 
                45.95449452094055
              ], 
              [
                -64.64879310733579, 
                45.9705671476493
              ], 
              [
                -64.67003331780441, 
                45.98314033106301
              ], 
              [
                -64.67878171738703, 
                45.990952898348716
              ], 
              [
                -64.68228105422267, 
                46.001613674563544
              ], 
              [
                -64.68301348679857, 
                46.02545810230438
              ], 
              [
                -64.68521074595085, 
                46.03620027451481
              ], 
              [
                -64.68976802968523, 
                46.04629139962382
              ], 
              [
                -64.70396889310722, 
                46.06216058462691
              ], 
              [
                -64.72606361545677, 
                46.07908765586461
              ], 
              [
                -64.74868731171432, 
                46.08991121945551
              ], 
              [
                -64.76488196362085, 
                46.08726633952274
              ], 
              [
                -64.71027585732651, 
                46.049628028136425
              ], 
              [
                -64.69660398274522, 
                46.03261956521416
              ], 
              [
                -64.70567787245379, 
                46.01788973737196
              ], 
              [
                -64.7079971939463, 
                46.00804269469307
              ], 
              [
                -64.70372473821669, 
                45.99937571601902
              ], 
              [
                -64.69318600330587, 
                45.98826732330453
              ], 
              [
                -64.66860918833865, 
                45.9705671476493
              ], 
              [
                -64.66405188331703, 
                45.96491119067165
              ], 
              [
                -64.6565649218314, 
                45.95294834404787
              ], 
              [
                -64.65221107017751, 
                45.95075105205278
              ], 
              [
                -64.63540604900419, 
                45.945217177334754
              ], 
              [
                -64.62608803495249, 
                45.931992943925316
              ], 
              [
                -64.61339269974363, 
                45.90224842157881
              ], 
              [
                -64.60163325347666, 
                45.89061103565357
              ], 
              [
                -64.5786840540834, 
                45.872707436921004
              ], 
              [
                -64.5724177870095, 
                45.860703878622424
              ], 
              [
                -64.58543860103316, 
                45.825913791363334
              ], 
              [
                -64.61318924334067, 
                45.80036038424208
              ], 
              [
                -64.64647376392155, 
                45.777655345889926
              ], 
              [
                -64.67609614863288, 
                45.751532270160965
              ], 
              [
                -64.66649328217935, 
                45.74591703145424
              ], 
              [
                -64.6498917278187, 
                45.73037343189681
              ], 
              [
                -64.64134681234393, 
                45.72418855252036
              ], 
              [
                -64.65343176034553, 
                45.72056709940402
              ], 
              [
                -64.67617752669841, 
                45.72618233022152
              ], 
              [
                -64.68976803634646, 
                45.72418855252036
              ], 
              [
                -64.6967667326875, 
                45.71580638629697
              ], 
              [
                -64.70775306149848, 
                45.68895092036473
              ], 
              [
                -64.71361244652918, 
                45.68317295091715
              ], 
              [
                -64.72915606719764, 
                45.67332594761919
              ], 
              [
                -64.7562556698537, 
                45.627793704469106
              ], 
              [
                -64.77163651967665, 
                45.614325253529096
              ], 
              [
                -64.78477942271063, 
                45.613185931617224
              ], 
              [
                -64.79027258920495, 
                45.61871979197455
              ], 
              [
                -64.79515540705438, 
                45.6273054163281
              ], 
              [
                -64.80646725766414, 
                45.635402750423495
              ], 
              [
                -64.81761634330611, 
                45.63743725041722
              ], 
              [
                -64.88280189428913, 
                45.6336123905404
              ], 
              [
                -64.9047745463656, 
                45.62824128655886
              ], 
              [
                -64.92442786013585, 
                45.619696346175026
              ], 
              [
                -64.94298254436029, 
                45.6080589691182
              ], 
              [
                -64.99449622554572, 
                45.55906810747465
              ], 
              [
                -65.01528885997475, 
                45.55284249967934
              ], 
              [
                -65.03522701688668, 
                45.550441798712086
              ], 
              [
                -65.18431556600322, 
                45.5104027537778
              ], 
              [
                -65.31505286997154, 
                45.45921460014468
              ], 
              [
                -65.4891658200546, 
                45.37164948367249
              ], 
              [
                -65.5193985679093, 
                45.36461009530359
              ], 
              [
                -65.52916419362174, 
                45.35773347010826
              ], 
              [
                -65.53620357303676, 
                45.34800851336005
              ], 
              [
                -65.53880775262478, 
                45.33714428978592
              ], 
              [
                -65.54499263459478, 
                45.32957589523596
              ], 
              [
                -65.55915279557487, 
                45.32481516232231
              ], 
              [
                -65.61856034841871, 
                45.31565989146501
              ], 
              [
                -65.62881425963774, 
                45.312648836677795
              ], 
              [
                -65.66071530269659, 
                45.294541743357044
              ], 
              [
                -65.69749915213472, 
                45.28522369781095
              ], 
              [
                -65.73298092322243, 
                45.253281966032574
              ], 
              [
                -65.75234941073093, 
                45.24437082925907
              ], 
              [
                -65.76134192854744, 
                45.24717845944445
              ], 
              [
                -65.782541466602, 
                45.26186757140963
              ], 
              [
                -65.79332434768894, 
                45.2648786472139
              ], 
              [
                -65.80406653269637, 
                45.260117897650574
              ], 
              [
                -65.82656816370648, 
                45.241685290785874
              ], 
              [
                -65.85289465940149, 
                45.23301829196098
              ], 
              [
                -65.8882950484092, 
                45.21385325045463
              ], 
              [
                -65.90941321466238, 
                45.210272527147566
              ], 
              [
                -65.92931067687506, 
                45.21303945720968
              ], 
              [
                -65.960560675716, 
                45.22199127728354
              ], 
              [
                -65.98143469829265, 
                45.22394439869367
              ], 
              [
                -65.99559485412942, 
                45.23029205428354
              ], 
              [
                -66.00593014550012, 
                45.24494050582203
              ], 
              [
                -66.01862545327542, 
                45.271633200656645
              ], 
              [
                -66.03962154919958, 
                45.28514232050254
              ], 
              [
                -66.13597571765811, 
                45.312648836677795
              ], 
              [
                -66.0335587231665, 
                45.37042877841871
              ], 
              [
                -66.00186113011779, 
                45.398586325270486
              ], 
              [
                -65.9983617773255, 
                45.40680571674255
              ], 
              [
                -65.99762936791394, 
                45.418036217368204
              ], 
              [
                -65.99876868018033, 
                45.4395612554096
              ], 
              [
                -66.00084387764755, 
                45.44981516760528
              ], 
              [
                -66.00527910379708, 
                45.45937735301978
              ], 
              [
                -66.00975501271765, 
                45.46434154080102
              ], 
              [
                -66.01183020779386, 
                45.46035390999223
              ], 
              [
                -66.02041581750086, 
                45.44928619623816
              ], 
              [
                -66.0584203812758, 
                45.4226748827302
              ], 
              [
                -66.06973222128293, 
                45.400295303159474
              ], 
              [
                -66.08751379900144, 
                45.37474192398215
              ], 
              [
                -66.08942623621516, 
                45.370021877540424
              ], 
              [
                -66.08897864114614, 
                45.36465077332206
              ], 
              [
                -66.08967037389593, 
                45.35923899120415
              ], 
              [
                -66.09496009577008, 
                45.35423413149232
              ], 
              [
                -66.1005753315966, 
                45.35411206256688
              ], 
              [
                -66.11432857300277, 
                45.36025623443333
              ], 
              [
                -66.12169348896691, 
                45.36107005391713
              ], 
              [
                -66.16413326082203, 
                45.35187407549913
              ], 
              [
                -66.18541418454039, 
                45.34414295228658
              ], 
              [
                -66.19676673200473, 
                45.333807686520906
              ], 
              [
                -66.1931859961109, 
                45.33055246122405
              ], 
              [
                -66.17690996201864, 
                45.30646393906883
              ], 
              [
                -66.1663712260554, 
                45.29726797867456
              ], 
              [
                -66.15440833237095, 
                45.289618231932245
              ], 
              [
                -66.14159095345566, 
                45.283433343685594
              ], 
              [
                -66.1284887344476, 
                45.279120180097294
              ], 
              [
                -66.10651607851743, 
                45.27732981627147
              ], 
              [
                -66.08678137921206, 
                45.27830638253362
              ], 
              [
                -66.07091223718778, 
                45.27448150743982
              ], 
              [
                -66.06021073992919, 
                45.25804270730419
              ], 
              [
                -66.08360755104384, 
                45.25230540611053
              ], 
              [
                -66.11595618759021, 
                45.23672110503565
              ], 
              [
                -66.14098059717173, 
                45.21808502591582
              ], 
              [
                -66.14216061114905, 
                45.202785549375406
              ], 
              [
                -66.18936113066097, 
                45.17780182163031
              ], 
              [
                -66.196766727396, 
                45.17234934193007
              ], 
              [
                -66.20213782619085, 
                45.15949128099781
              ], 
              [
                -66.21410071188348, 
                45.16958241615854
              ], 
              [
                -66.23155677353871, 
                45.196600661897314
              ], 
              [
                -66.2493790343175, 
                45.20465728977184
              ], 
              [
                -66.27977454486849, 
                45.20860423869353
              ], 
              [
                -66.31004797883854, 
                45.204820048573175
              ], 
              [
                -66.32774817357398, 
                45.18976470990876
              ], 
              [
                -66.30382239337366, 
                45.187160544914995
              ], 
              [
                -66.27049719757606, 
                45.18976470990876
              ], 
              [
                -66.24860592747667, 
                45.185288812740936
              ], 
              [
                -66.25890051913863, 
                45.16176992183401
              ], 
              [
                -66.2838028631432, 
                45.14996979184582
              ], 
              [
                -66.34284420601703, 
                45.14439525155545
              ], 
              [
                -66.35440019332438, 
                45.13141510430267
              ], 
              [
                -66.35802161256647, 
                45.116603904397394
              ], 
              [
                -66.36717688832081, 
                45.11489492731944
              ], 
              [
                -66.37954667755385, 
                45.11652252436691
              ], 
              [
                -66.39293372141212, 
                45.11123281101119
              ], 
              [
                -66.41490638081058, 
                45.09284089154872
              ], 
              [
                -66.4288223932833, 
                45.0837262996876
              ], 
              [
                -66.4406632150905, 
                45.079901434227644
              ], 
              [
                -66.45421302067734, 
                45.07705312870128
              ], 
              [
                -66.46129309893463, 
                45.07774486134726
              ], 
              [
                -66.4642634745498, 
                45.08360423035912
              ], 
              [
                -66.46491451681042, 
                45.09800853052433
              ], 
              [
                -66.46401933341757, 
                45.104885154028636
              ], 
              [
                -66.46084550639509, 
                45.107814844482064
              ], 
              [
                -66.46027584658903, 
                45.1147321679879
              ], 
              [
                -66.49095618250873, 
                45.15562571426263
              ], 
              [
                -66.50548255177083, 
                45.14801667093204
              ], 
              [
                -66.51992753813425, 
                45.14394765833662
              ], 
              [
                -66.54312089658157, 
                45.14199452944697
              ], 
              [
                -66.55003821385266, 
                45.14028554612639
              ], 
              [
                -66.66006425551893, 
                45.08462148229258
              ], 
              [
                -66.69253495931423, 
                45.07461171928404
              ], 
              [
                -66.71812903609091, 
                45.079901434227644
              ], 
              [
                -66.7106827459319, 
                45.08730703283
              ], 
              [
                -66.71788489675984, 
                45.090928457401354
              ], 
              [
                -66.72496497190559, 
                45.09357330626369
              ], 
              [
                -66.73106848901222, 
                45.07477448103079
              ], 
              [
                -66.74583899603454, 
                45.06452057508662
              ], 
              [
                -66.76634680815113, 
                45.06028880187765
              ], 
              [
                -66.78954016810472, 
                45.05939362226206
              ], 
              [
                -66.7970271474278, 
                45.06582265657031
              ], 
              [
                -66.78693600095926, 
                45.08063385339966
              ], 
              [
                -66.78075110703422, 
                45.09682852058402
              ], 
              [
                -66.80011959439199, 
                45.107814844482064
              ], 
              [
                -66.80337480290221, 
                45.093410546258475
              ], 
              [
                -66.81330319075892, 
                45.08942292339287
              ], 
              [
                -66.82701575575926, 
                45.08942292339287
              ], 
              [
                -66.8416641919318, 
                45.08730703283
              ], 
              [
                -66.87214108061869, 
                45.065578519544644
              ], 
              [
                -66.88890540334043, 
                45.060695705850016
              ], 
              [
                -66.90868079490701, 
                45.098700266755166
              ], 
              [
                -66.91104081972058, 
                45.11391836279635
              ], 
              [
                -66.899403450327, 
                45.12083567981537
              ], 
              [
                -66.8852432918159, 
                45.122300520048114
              ], 
              [
                -66.86229407336461, 
                45.127997132922076
              ], 
              [
                -66.84788977989278, 
                45.12832266272143
              ], 
              [
                -66.85570227871546, 
                45.137600003784314
              ], 
              [
                -66.86974036413497, 
                45.14394765833662
              ], 
              [
                -66.88565019351917, 
                45.147609766801985
              ], 
              [
                -66.8994034486086, 
                45.14878977753374
              ], 
              [
                -66.91600501227977, 
                45.15468984669698
              ], 
              [
                -66.92739824127011, 
                45.16819896067264
              ], 
              [
                -66.93586178616145, 
                45.18203360386736
              ], 
              [
                -66.94347082955147, 
                45.18976470990876
              ], 
              [
                -66.95702063689546, 
                45.18907298374032
              ], 
              [
                -66.97077389240336, 
                45.18199290700343
              ], 
              [
                -66.98143469770173, 
                45.1710065722838
              ], 
              [
                -66.98570716143637, 
                45.158758857085814
              ], 
              [
                -66.99144446412909, 
                45.16176992183401
              ], 
              [
                -67.00519771721581, 
                45.1666527290771
              ], 
              [
                -67.0211482419079, 
                45.16836172325716
              ], 
              [
                -67.04006914051664, 
                45.1438255892849
              ], 
              [
                -67.03880774423982, 
                45.13426340962287
              ], 
              [
                -67.04552161586436, 
                45.11717357463766
              ], 
              [
                -67.04950924220644, 
                45.09642161253741
              ], 
              [
                -67.04006913950131, 
                45.0756289717588
              ], 
              [
                -67.06566321644188, 
                45.08254629458813
              ], 
              [
                -67.08637447753529, 
                45.09764231884455
              ], 
              [
                -67.12478593636578, 
                45.14378489642538
              ], 
              [
                -67.1310929014246, 
                45.15383535008925
              ], 
              [
                -67.13414466328022, 
                45.165065827659525
              ], 
              [
                -67.13626054281924, 
                45.19651926511092
              ], 
              [
                -67.14065507927266, 
                45.20461660963604
              ], 
              [
                -67.14915930811159, 
                45.20551178379752
              ], 
              [
                -67.16295325482898, 
                45.198513090055485
              ], 
              [
                -67.16303463756864, 
                45.212754632845424
              ], 
              [
                -67.16795813372477, 
                45.222601621884536
              ], 
              [
                -67.1771947911139, 
                45.22898997628233
              ], 
              [
                -67.19029700631226, 
                45.23318106272671
              ], 
              [
                -67.19062252147845, 
                45.21739328727623
              ], 
              [
                -67.18773352546611, 
                45.201442769720835
              ], 
              [
                -67.18256588465742, 
                45.18793366263005
              ], 
              [
                -67.1760147766624, 
                45.178656313683334
              ], 
              [
                -67.20616620963504, 
                45.18940059005213
              ], 
              [
                -67.21907059965251, 
                45.192126367094374
              ], 
              [
                -67.242428347938, 
                45.202565010275144
              ], 
              [
                -67.25498572244062, 
                45.20504548051765
              ], 
              [
                -67.26733638436447, 
                45.20251332442729
              ], 
              [
                -67.2772065818359, 
                45.19507191464372
              ], 
              [
                -67.2792219659145, 
                45.18737213326407
              ], 
              [
                -67.27958370385028, 
                45.17905223553302
              ], 
              [
                -67.28464798926909, 
                45.16969879019045
              ], 
              [
                -67.31921952409807, 
                45.15388580671866
              ], 
              [
                -67.35627152336646, 
                45.16592640548582
              ], 
              [
                -67.3905330016813, 
                45.1931082201551
              ], 
              [
                -67.42758500304492, 
                45.236568097578754
              ], 
              [
                -67.4713032614819, 
                45.26628203779389
              ], 
              [
                -67.47502396514334, 
                45.28235340942614
              ], 
              [
                -67.46866776548462, 
                45.301835427730886
              ], 
              [
                -67.45905595042633, 
                45.31842356751271
              ], 
              [
                -67.43456131590538, 
                45.35030791291973
              ], 
              [
                -67.42882524456276, 
                45.38704988460669
              ], 
              [
                -67.48231034063814, 
                45.45552113074741
              ], 
              [
                -67.49321406802112, 
                45.49314157369455
              ], 
              [
                -67.46753088668986, 
                45.508282782597654
              ], 
              [
                -67.44303625996342, 
                45.52218374817472
              ], 
              [
                -67.42618973098976, 
                45.53344918180486
              ], 
              [
                -67.42210730518428, 
                45.568795890707726
              ], 
              [
                -67.4313056980043, 
                45.597941368865605
              ], 
              [
                -67.44996090085593, 
                45.61080882643927
              ], 
              [
                -67.47579911430844, 
                45.6129792312018
              ], 
              [
                -67.50639156695601, 
                45.60982697812248
              ], 
              [
                -67.55186681749122, 
                45.61044707442385
              ], 
              [
                -67.60752234336407, 
                45.62005891065627
              ], 
              [
                -67.66033564654047, 
                45.63737048824614
              ], 
              [
                -67.69077306990387, 
                45.65380360632925
              ], 
              [
                -67.70482906154484, 
                45.66419057332748
              ], 
              [
                -67.71046180604192, 
                45.67540439219326
              ], 
              [
                -67.71738642000761, 
                45.68537787593877
              ], 
              [
                -67.72798009894348, 
                45.69225086512859
              ], 
              [
                -67.73552486449783, 
                45.690752264078384
              ], 
              [
                -67.74074419489455, 
                45.68362094481335
              ], 
              [
                -67.74803055136812, 
                45.67778145542735
              ], 
              [
                -67.76177647471533, 
                45.68010687824591
              ], 
              [
                -67.78611608378161, 
                45.691217333311904
              ], 
              [
                -67.80012038907803, 
                45.699847279592824
              ], 
              [
                -67.80704504123513, 
                45.71286976528275
              ], 
              [
                -67.81112747095847, 
                45.76650987878125
              ], 
              [
                -67.8062699134887, 
                45.781754493573295
              ], 
              [
                -67.7941259239862, 
                45.79916938386291
              ], 
              [
                -67.77986323986065, 
                45.815705869237604
              ], 
              [
                -67.77283526023331, 
                45.828056574508395
              ], 
              [
                -67.77609085276981, 
                45.8408205956295
              ], 
              [
                -67.79262731362776, 
                45.85890735698868
              ], 
              [
                -67.7992419141003, 
                45.87565056087241
              ], 
              [
                -67.78735633635308, 
                45.89001661090051
              ], 
              [
                -67.76942459388397, 
                45.90396919835696
              ], 
              [
                -67.75784909572532, 
                45.91947218363353
              ], 
              [
                -67.7596577603847, 
                45.92856721060816
              ], 
              [
                -67.76746089413976, 
                45.93595692308259
              ], 
              [
                -67.77655594721925, 
                45.94293324127698
              ], 
              [
                -67.78275710544452, 
                45.950529646399765
              ], 
              [
                -67.78456579901764, 
                45.960141504876184
              ], 
              [
                -67.78714960730863, 
                46.09455187424841
              ], 
              [
                -67.78973343935235, 
                46.22901397644576
              ], 
              [
                -67.79231725855256, 
                46.36347604814558
              ], 
              [
                -67.79484937895414, 
                46.497860549152165
              ], 
              [
                -67.79743322567215, 
                46.63229684947216
              ], 
              [
                -67.80001705848962, 
                46.76678479008415
              ], 
              [
                -67.80254917487665, 
                46.90124679957948
              ], 
              [
                -67.8051847125117, 
                47.035631454795954
              ], 
              [
                -67.8086986816113, 
                47.07513802233551
              ], 
              [
                -67.81355626489908, 
                47.08190763032824
              ], 
              [
                -67.85474237525382, 
                47.09784979713856
              ], 
              [
                -67.87060705969832, 
                47.107358305653484
              ], 
              [
                -67.89913247509718, 
                47.138777633651266
              ], 
              [
                -67.94341917389936, 
                47.16453832809568
              ], 
              [
                -67.94998205365997, 
                47.172935683542484
              ], 
              [
                -67.95370273424068, 
                47.18662988627941
              ], 
              [
                -67.96243610861977, 
                47.19768877601059
              ], 
              [
                -67.99318356600324, 
                47.22321688926266
              ], 
              [
                -68.0393823081761, 
                47.24523107418896
              ], 
              [
                -68.10144565396473, 
                47.286184530622755
              ], 
              [
                -68.11539834092167, 
                47.29228246777216
              ], 
              [
                -68.14506058617083, 
                47.30145497276303
              ], 
              [
                -68.156067656356, 
                47.306674269035994
              ], 
              [
                -68.18433465861187, 
                47.3331325887844
              ], 
              [
                -68.19704705536812, 
                47.34140080436802
              ], 
              [
                -68.24644976264865, 
                47.36057284981998
              ], 
              [
                -68.29972813282919, 
                47.367833316703816
              ], 
              [
                -68.34783892682066, 
                47.358505801390415
              ], 
              [
                -68.38204870424742, 
                47.32780995295797
              ], 
              [
                -68.38483924586907, 
                47.31587272838592
              ], 
              [
                -68.3833922762669, 
                47.30713934538037
              ], 
              [
                -68.38561437454341, 
                47.30171334409662
              ], 
              [
                -68.41021237885424, 
                47.2974242538961
              ], 
              [
                -68.42256302977133, 
                47.29310923247261
              ], 
              [
                -68.43532709823495, 
                47.291274697468594
              ], 
              [
                -68.46674637877341, 
                47.30569244347786
              ], 
              [
                -68.492016132804, 
                47.30755274715821
              ], 
              [
                -68.5180094110692, 
                47.30476229580304
              ], 
              [
                -68.53966185420856, 
                47.29985307527488
              ], 
              [
                -68.58524043420358, 
                47.28248971725726
              ], 
              [
                -68.60792639874138, 
                47.269829015526625
              ], 
              [
                -68.6255997307612, 
                47.25520456714666
              ], 
              [
                -68.64420326659598, 
                47.24528273914261
              ], 
              [
                -68.66880123081842, 
                47.24342234488508
              ], 
              [
                -68.71779051141719, 
                47.24523107418896
              ], 
              [
                -68.76181880095471, 
                47.23704028779407
              ], 
              [
                -68.88971799122076, 
                47.19060906169836
              ], 
              [
                -68.90622861068034, 
                47.19022148844862
              ], 
              [
                -69.04019974739174, 
                47.24905507260721
              ], 
              [
                -69.0574855445717, 
                47.26946733266471
              ], 
              [
                -69.06355980714693, 
                47.29080933721545
              ]
            ]
          ], 
          [
            [
              [
                -66.90103101653138, 
                44.889390273205784
              ], 
              [
                -66.9166559935001, 
                44.87767146555441
              ], 
              [
                -66.93097901121064, 
                44.869859220153444
              ], 
              [
                -66.9205623174621, 
                44.85032790071446
              ], 
              [
                -66.91926018302031, 
                44.83730694036446
              ], 
              [
                -66.93879143019856, 
                44.83860901732733
              ], 
              [
                -66.95571853446494, 
                44.84642156809905
              ], 
              [
                -66.97524985830562, 
                44.86074466886448
              ], 
              [
                -66.98176022078543, 
                44.87246328496475
              ], 
              [
                -66.9583226594624, 
                44.87767146555441
              ], 
              [
                -66.95441643250145, 
                44.889390273205784
              ], 
              [
                -66.95441651458918, 
                44.89980714450875
              ], 
              [
                -66.94660397509118, 
                44.915432045730086
              ], 
              [
                -66.94009354672633, 
                44.92584868181515
              ], 
              [
                -66.93358313273323, 
                44.94147368933489
              ], 
              [
                -66.92186433418178, 
                44.947983984965965
              ], 
              [
                -66.90493727389496, 
                44.9557965417358
              ], 
              [
                -66.90493735547722, 
                44.94668216171796
              ], 
              [
                -66.90363518353409, 
                44.93366110879453
              ], 
              [
                -66.8919165003274, 
                44.921942525882656
              ], 
              [
                -66.89321852169077, 
                44.90631736913738
              ], 
              [
                -66.90103101653138, 
                44.889390273205784
              ]
            ]
          ], 
          [
            [
              [
                -66.96353103258495, 
                44.96100489651327
              ], 
              [
                -66.97785393727325, 
                44.93626528524121
              ], 
              [
                -66.98566646272133, 
                44.92584868181515
              ], 
              [
                -67.00519766711598, 
                44.947983984965965
              ], 
              [
                -67.0143123582188, 
                44.96360925230995
              ], 
              [
                -67.01691651072296, 
                44.97923421859661
              ], 
              [
                -67.00519768506152, 
                44.9896506958364
              ], 
              [
                -66.98957271998206, 
                45.00136953295556
              ], 
              [
                -66.97394771998042, 
                45.018296616951396
              ], 
              [
                -66.95441647024887, 
                45.02741120062124
              ], 
              [
                -66.93879147020738, 
                45.02480703351787
              ], 
              [
                -66.94009355412774, 
                45.01178620031915
              ], 
              [
                -66.9453018870007, 
                45.00006745000205
              ], 
              [
                -66.94790603808795, 
                44.98314032726452
              ], 
              [
                -66.96353103258495, 
                44.96100489651327
              ]
            ]
          ], 
          [
            [
              [
                -66.8614803063168, 
                44.726752103710524
              ], 
              [
                -66.85114503215542, 
                44.75470623792299
              ], 
              [
                -66.82575438195194, 
                44.78758377860911
              ], 
              [
                -66.79128877545138, 
                44.79910418206587
              ], 
              [
                -66.76945308478817, 
                44.795657066284505
              ], 
              [
                -66.75680088059072, 
                44.77756256076546
              ], 
              [
                -66.7431599032718, 
                44.78204724931158
              ], 
              [
                -66.7324655582549, 
                44.76882359337171
              ], 
              [
                -66.73549072382644, 
                44.75908348431787
              ], 
              [
                -66.75289543272686, 
                44.76385441342396
              ], 
              [
                -66.76148643022138, 
                44.75452973212537
              ], 
              [
                -66.75332843950652, 
                44.74176136140159
              ], 
              [
                -66.73863682567752, 
                44.710638682792776
              ], 
              [
                -66.72810613075579, 
                44.68353547250315
              ], 
              [
                -66.72113444170434, 
                44.662779159414264
              ], 
              [
                -66.70799806221159, 
                44.65133408797573
              ], 
              [
                -66.69178402297145, 
                44.642991674653764
              ], 
              [
                -66.68734214356552, 
                44.62885734481589
              ], 
              [
                -66.69039121108464, 
                44.62000162076458
              ], 
              [
                -66.7089869986012, 
                44.61374146165845
              ], 
              [
                -66.72831334422374, 
                44.62295208272209
              ], 
              [
                -66.73279138322229, 
                44.641067747862486
              ], 
              [
                -66.7428288692819, 
                44.6534085747856
              ], 
              [
                -66.75405138919223, 
                44.657342038524654
              ], 
              [
                -66.76770140510445, 
                44.653304773868825
              ], 
              [
                -66.78328254575258, 
                44.66120501550211
              ], 
              [
                -66.79817286281757, 
                44.65937503509569
              ], 
              [
                -66.80993655129727, 
                44.651801800631425
              ], 
              [
                -66.83909093544099, 
                44.650351343624585
              ], 
              [
                -66.85838784219676, 
                44.63800694628607
              ], 
              [
                -66.86701413777025, 
                44.629787529110864
              ], 
              [
                -66.87614105644084, 
                44.60633117211959
              ], 
              [
                -66.89029092663095, 
                44.60275718660125
              ], 
              [
                -66.90598581599632, 
                44.60616907831466
              ], 
              [
                -66.90143792866377, 
                44.63011295674175
              ], 
              [
                -66.89134681452441, 
                44.65558504189397
              ], 
              [
                -66.88459230405186, 
                44.68891035383529
              ], 
              [
                -66.86579341086707, 
                44.71124905799514
              ], 
              [
                -66.8614803063168, 
                44.726752103710524
              ]
            ]
          ], 
          [
            [
              [
                -64.50475009792409, 
                47.889797193408086
              ], 
              [
                -64.51195232925159, 
                47.90253339295273
              ], 
              [
                -64.50405840859901, 
                47.91669345241784
              ], 
              [
                -64.4774470952142, 
                47.944403449830574
              ], 
              [
                -64.47704014029033, 
                47.93781152456987
              ], 
              [
                -64.47866779696646, 
                47.93317297646455
              ], 
              [
                -64.4923396960127, 
                47.91063071618541
              ], 
              [
                -64.49889080758345, 
                47.89276777361605
              ], 
              [
                -64.50324455336396, 
                47.874172168004506
              ], 
              [
                -64.5047501399541, 
                47.8587100543216
              ], 
              [
                -64.50902264238381, 
                47.844549997925135
              ], 
              [
                -64.51891022603661, 
                47.82929093880186
              ], 
              [
                -64.5389297693552, 
                47.80719624137466
              ], 
              [
                -64.59349519983164, 
                47.765366817863125
              ], 
              [
                -64.64879304487637, 
                47.73212298608651
              ], 
              [
                -64.6542048933319, 
                47.747056409269746
              ], 
              [
                -64.66600496274557, 
                47.7528342585172
              ], 
              [
                -64.68106029795555, 
                47.75503151543931
              ], 
              [
                -64.69660392994865, 
                47.75942607772253
              ], 
              [
                -64.65501872956601, 
                47.782904473517966
              ], 
              [
                -64.64879306364294, 
                47.79047264043634
              ], 
              [
                -64.65420485870698, 
                47.80190658705088
              ], 
              [
                -64.6666559933214, 
                47.80263891928322
              ], 
              [
                -64.68040928363114, 
                47.798000332081436
              ], 
              [
                -64.68976801507534, 
                47.79360581795704
              ], 
              [
                -64.68716380530216, 
                47.80263891928322
              ], 
              [
                -64.68285068963385, 
                47.810044603115166
              ], 
              [
                -64.67674718681876, 
                47.81606676736547
              ], 
              [
                -64.6686092153942, 
                47.82086831834248
              ], 
              [
                -64.686268654746, 
                47.81928124680911
              ], 
              [
                -64.6966446645791, 
                47.82103100058588
              ], 
              [
                -64.70006256662576, 
                47.82794815941749
              ], 
              [
                -64.69660394183876, 
                47.84198632749419
              ], 
              [
                -64.69098875193507, 
                47.85028721519104
              ], 
              [
                -64.68053138505638, 
                47.861395589512114
              ], 
              [
                -64.66869050036999, 
                47.87128312953692
              ], 
              [
                -64.65868084631379, 
                47.87547447872859
              ], 
              [
                -64.59552979466503, 
                47.88548421928105
              ], 
              [
                -64.56798260854883, 
                47.8830428480325
              ], 
              [
                -64.57990473544608, 
                47.86245347827441
              ], 
              [
                -64.5589493841915, 
                47.86957437285871
              ], 
              [
                -64.53864495280013, 
                47.8701031772978
              ], 
              [
                -64.52013101919864, 
                47.87360267850968
              ], 
              [
                -64.50475009792409, 
                47.889797193408086
              ]
            ]
          ], 
          [
            [
              [
                -64.54576572163323, 
                47.97166567957885
              ], 
              [
                -64.52578689098759, 
                48.02069728042049
              ], 
              [
                -64.51081295724872, 
                48.03359610137035
              ], 
              [
                -64.48428306400407, 
                48.02008711725319
              ], 
              [
                -64.48005127290232, 
                47.99835855427822
              ], 
              [
                -64.47301186431044, 
                47.98094314004615
              ], 
              [
                -64.47240153735862, 
                47.9633650750713
              ], 
              [
                -64.48741613291318, 
                47.94122953003178
              ], 
              [
                -64.50780187666298, 
                47.92829008122226
              ], 
              [
                -64.56826732483745, 
                47.906968355007926
              ], 
              [
                -64.59044346062814, 
                47.90346907502105
              ], 
              [
                -64.59410563575439, 
                47.91437418142073
              ], 
              [
                -64.57713777600839, 
                47.93842182473379
              ], 
              [
                -64.54576572163323, 
                47.97166567957885
              ]
            ]
          ]
        ]
      }, 
      "type": "Feature", 
      "properties": {
        "source": "https://simplemaps.com", 
        "id": "CANB", 
        "name": "New Brunswick"
      }, 
      "id": 7
    }
  ]
}