{
  "type": "FeatureCollection", 
  "features": [
    {
      "geometry": {
        "type": "Polygon", 
        "coordinates": [
          [
            [
              -62.00401770862852, 
              46.46405671224824
            ], 
            [
              -61.97695881408014, 
              46.45465736207717
            ], 
            [
              -61.97740636195157, 
              46.448187522491416
            ], 
            [
              -61.993519679022235, 
              46.440334424048956
            ], 
            [
              -62.03132075021463, 
              46.41494370817769
            ], 
            [
              -62.165638816263574, 
              46.3583845468226
            ], 
            [
              -62.212554494773585, 
              46.347560949840805
            ], 
            [
              -62.22760980487936, 
              46.34589257950484
            ], 
            [
              -62.23985754002314, 
              46.35106026039049
            ], 
            [
              -62.250477676749554, 
              46.360052824795574
            ], 
            [
              -62.283924954410224, 
              46.382147581116094
            ], 
            [
              -62.27090411753538, 
              46.354152779072585
            ], 
            [
              -62.27375241296551, 
              46.344916095937165
            ], 
            [
              -62.29141192788015, 
              46.34113194176128
            ], 
            [
              -62.30687412785668, 
              46.344631186527145
            ], 
            [
              -62.339426254046806, 
              46.359442496951424
            ], 
            [
              -62.35968990323775, 
              46.36102935161505
            ], 
            [
              -62.35968990370034, 
              46.35419341581612
            ], 
            [
              -62.34801185092963, 
              46.34560782262373
            ], 
            [
              -62.34605873514813, 
              46.32428623163075
            ], 
            [
              -62.33177651493219, 
              46.31321854132009
            ], 
            [
              -62.36729896279176, 
              46.30621980908227
            ], 
            [
              -62.38451085492293, 
              46.30573147014562
            ], 
            [
              -62.40062417195308, 
              46.31321854132009
            ], 
            [
              -62.36778724139006, 
              46.28440990422752
            ], 
            [
              -62.36571203484447, 
              46.27142973374322
            ], 
            [
              -62.390370246919986, 
              46.2660586633975
            ], 
            [
              -62.471262184488516, 
              46.280462985285546
            ], 
            [
              -62.496896951859775, 
              46.272284280447565
            ], 
            [
              -62.44692949855659, 
              46.25910067267672
            ], 
            [
              -62.42373612574343, 
              46.245062550696964
            ], 
            [
              -62.42113195213353, 
              46.2238222994536
            ], 
            [
              -62.43732661258537, 
              46.21625393541954
            ], 
            [
              -62.466175897028144, 
              46.21491116358951
            ], 
            [
              -62.51390539531165, 
              46.21767810698109
            ], 
            [
              -62.55500240324189, 
              46.23419829662423
            ], 
            [
              -62.57640541139235, 
              46.23899976381889
            ], 
            [
              -62.58560137162799, 
              46.227525146634136
            ], 
            [
              -62.54328364401089, 
              46.21491116358951
            ], 
            [
              -62.51301021034844, 
              46.20160551085874
            ], 
            [
              -62.49689694419825, 
              46.18349845355085
            ], 
            [
              -62.52440344047393, 
              46.18675362318084
            ], 
            [
              -62.57306881861012, 
              46.207424232995905
            ], 
            [
              -62.599232548247286, 
              46.21084218284113
            ], 
            [
              -62.59483801316201, 
              46.20282622121157
            ], 
            [
              -62.5897517694277, 
              46.19839105033634
            ], 
            [
              -62.58263098307047, 
              46.19668201756952
            ], 
            [
              -62.57192947714634, 
              46.19717027894243
            ], 
            [
              -62.57192949047706, 
              46.19033437563892
            ], 
            [
              -62.582020622346285, 
              46.19074123986015
            ], 
            [
              -62.590443492423816, 
              46.189642653910646
            ], 
            [
              -62.60676022520732, 
              46.18349845355085
            ], 
            [
              -62.58702551118034, 
              46.17739490103892
            ], 
            [
              -62.546742320058755, 
              46.175238355969
            ], 
            [
              -62.5309952419033, 
              46.16986724432329
            ], 
            [
              -62.53819738595236, 
              46.15965401541651
            ], 
            [
              -62.54222570434984, 
              46.145819375231646
            ], 
            [
              -62.543283669385396, 
              46.133490331694404
            ], 
            [
              -62.54157468635348, 
              46.12824131022435
            ], 
            [
              -62.49205482580255, 
              46.12563713398138
            ], 
            [
              -62.475738070348896, 
              46.121405302735994
            ], 
            [
              -62.4807022773584, 
              46.1351992843253
            ], 
            [
              -62.490589963706704, 
              46.141546917746766
            ], 
            [
              -62.51732338454242, 
              46.14935947732101
            ], 
            [
              -62.48643957549904, 
              46.152655324037774
            ], 
            [
              -62.46422278535859, 
              46.1351992843253
            ], 
            [
              -62.45323646088258, 
              46.107611405147395
            ], 
            [
              -62.45592201423216, 
              46.080471122758894
            ], 
            [
              -62.457590305050466, 
              46.07982006982292
            ], 
            [
              -62.47264563892477, 
              46.063421947034605
            ], 
            [
              -62.47931881793921, 
              46.060003983303126
            ], 
            [
              -62.488596143601896, 
              46.05906806334689
            ], 
            [
              -62.50674394794094, 
              46.060003983303126
            ], 
            [
              -62.52749589527086, 
              46.05731841986727
            ], 
            [
              -62.55455480739444, 
              46.043931356897396
            ], 
            [
              -62.57192948020577, 
              46.0388044007954
            ], 
            [
              -62.5719294978727, 
              46.03266024096097
            ], 
            [
              -62.55426999479133, 
              46.03070712098257
            ], 
            [
              -62.51048742731212, 
              46.01837797949938
            ], 
            [
              -62.496327267839305, 
              46.018988321406
            ], 
            [
              -62.47057044043124, 
              46.02513254989312
            ], 
            [
              -62.455921990889266, 
              46.02521389966755
            ], 
            [
              -62.48558508805558, 
              45.98989491890659
            ], 
            [
              -62.545236772256, 
              45.97182848986937
            ], 
            [
              -62.6839493387802, 
              45.965643597910095
            ], 
            [
              -62.7146703894884, 
              45.9704043966111
            ], 
            [
              -62.72899329348763, 
              45.970607816273315
            ], 
            [
              -62.736683721264264, 
              45.96702708046888
            ], 
            [
              -62.74510658068206, 
              45.954046956836386
            ], 
            [
              -62.750721812084045, 
              45.95075105205278
            ], 
            [
              -62.75670325811669, 
              45.952460038747546
            ], 
            [
              -62.771839961227826, 
              45.96173734128128
            ], 
            [
              -62.77741451475017, 
              45.96434153313025
            ], 
            [
              -62.8294571469508, 
              45.97272366338268
            ], 
            [
              -62.846302863563324, 
              45.97801341286257
            ], 
            [
              -62.89411372806511, 
              46.00535714335627
            ], 
            [
              -62.87999426401856, 
              46.010972382437096
            ], 
            [
              -62.87360591602475, 
              46.01154203824757
            ], 
            [
              -62.873605917273295, 
              46.01837797949938
            ], 
            [
              -62.88914954196479, 
              46.02069733030777
            ], 
            [
              -62.904774547254284, 
              46.02529532606128
            ], 
            [
              -62.919300921368915, 
              46.03241610994828
            ], 
            [
              -62.931630016519314, 
              46.042629310740494
            ], 
            [
              -62.93464109025055, 
              46.052964611620894
            ], 
            [
              -62.921213334946685, 
              46.05524320488767
            ], 
            [
              -62.887277785967825, 
              46.05316800213025
            ], 
            [
              -62.90904700171539, 
              46.071926168067414
            ], 
            [
              -62.99665280451938, 
              46.06195711231679
            ], 
            [
              -63.03062902313443, 
              46.06679918765041
            ], 
            [
              -63.00926674372056, 
              46.071763446981414
            ], 
            [
              -62.9865616410745, 
              46.07363512707081
            ], 
            [
              -62.97362219211003, 
              46.07689034653467
            ], 
            [
              -62.950306783535986, 
              46.09145745911144
            ], 
            [
              -62.91755124961142, 
              46.10126377431698
            ], 
            [
              -62.886952277709256, 
              46.12962474124607
            ], 
            [
              -62.866118932108826, 
              46.135687536147834
            ], 
            [
              -62.878244581002264, 
              46.1555849917073
            ], 
            [
              -62.89549718600083, 
              46.157456736715204
            ], 
            [
              -62.914458786994274, 
              46.14765045539354
            ], 
            [
              -62.93163000389171, 
              46.131984746982845
            ], 
            [
              -62.947865354664295, 
              46.127997112805055
            ], 
            [
              -62.95653235713509, 
              46.144842843940474
            ], 
            [
              -62.95197507443871, 
              46.166408623026456
            ], 
            [
              -62.928212047088756, 
              46.176662512587505
            ], 
            [
              -62.93545488761675, 
              46.187201253538504
            ], 
            [
              -62.947173634537094, 
              46.193426831564906
            ], 
            [
              -62.97598222186954, 
              46.20457590332065
            ], 
            [
              -62.989654087053864, 
              46.19717027894243
            ], 
            [
              -62.98501543651565, 
              46.192084071435914
            ], 
            [
              -62.98314368293483, 
              46.1887067702454
            ], 
            [
              -62.98110917750894, 
              46.18610260214352
            ], 
            [
              -62.97598223123807, 
              46.18349845355085
            ], 
            [
              -62.99738522681566, 
              46.17926668662799
            ], 
            [
              -63.025257940507906, 
              46.18610260214352
            ], 
            [
              -63.05431068083533, 
              46.19692618648923
            ], 
            [
              -63.10627192436492, 
              46.21015042024346
            ], 
            [
              -63.1168106883403, 
              46.21576572382692
            ], 
            [
              -63.112131328567514, 
              46.22418858156583
            ], 
            [
              -63.09333247211476, 
              46.2381045231959
            ], 
            [
              -63.08775793233751, 
              46.24103422208432
            ], 
            [
              -63.07770748060398, 
              46.243557019084605
            ], 
            [
              -63.072865376514876, 
              46.245550880275246
            ], 
            [
              -63.06798253644939, 
              46.25079983447726
            ], 
            [
              -63.06712805980486, 
              46.25641510807562
            ], 
            [
              -63.06729081183542, 
              46.26178618152925
            ], 
            [
              -63.06541907592992, 
              46.2660586633975
            ], 
            [
              -63.061146601250385, 
              46.26691312013163
            ], 
            [
              -63.049061648872986, 
              46.2650413973583
            ], 
            [
              -63.044911262929624, 
              46.2660586633975
            ], 
            [
              -63.043324349478496, 
              46.27057526581254
            ], 
            [
              -63.043812638171765, 
              46.27631259064589
            ], 
            [
              -63.043202284925094, 
              46.28192781985146
            ], 
            [
              -63.03807531215544, 
              46.2865664398914
            ], 
            [
              -62.98033606917147, 
              46.30548737759993
            ], 
            [
              -62.96300210287181, 
              46.3200137928183
            ], 
            [
              -62.98102779746746, 
              46.31940338304964
            ], 
            [
              -63.011708148716245, 
              46.30853916019631
            ], 
            [
              -63.043609191361675, 
              46.30158115384929
            ], 
            [
              -63.069650833600875, 
              46.28327054562957
            ], 
            [
              -63.08250892180449, 
              46.27912019380189
            ], 
            [
              -63.096791146026504, 
              46.272650460644684
            ], 
            [
              -63.120432105708325, 
              46.24433017259648
            ], 
            [
              -63.134348097105715, 
              46.2381045231959
            ], 
            [
              -63.14045161732946, 
              46.24103422208432
            ], 
            [
              -63.1616104730297, 
              46.25922270248148
            ], 
            [
              -63.19570880100354, 
              46.272284280447565
            ], 
            [
              -63.17369543898277, 
              46.23822662222995
            ], 
            [
              -63.17471268591751, 
              46.22772856218023
            ], 
            [
              -63.199126743973196, 
              46.2238222994536
            ], 
            [
              -63.207630989672175, 
              46.22077057673111
            ], 
            [
              -63.22402911509384, 
              46.20758701729532
            ], 
            [
              -63.233265749852684, 
              46.20457590332065
            ], 
            [
              -63.27086340685022, 
              46.20457590332065
            ], 
            [
              -63.270863396991594, 
              46.19717027894243
            ], 
            [
              -63.214914516239176, 
              46.19110748703976
            ], 
            [
              -63.189116983321725, 
              46.19529855020975
            ], 
            [
              -63.175282348230304, 
              46.21767810698109
            ], 
            [
              -63.14769446512375, 
              46.20628489831933
            ], 
            [
              -63.14191648447913, 
              46.19843174534468
            ], 
            [
              -63.14732825925234, 
              46.18349845355085
            ], 
            [
              -63.17764238158022, 
              46.17194244891744
            ], 
            [
              -63.208159958211176, 
              46.16522857838751
            ], 
            [
              -63.233387818670494, 
              46.14545317567731
            ], 
            [
              -63.25719155028547, 
              46.141913189829936
            ], 
            [
              -63.28429115036126, 
              46.14704011981458
            ], 
            [
              -63.33556067920037, 
              46.165716872236025
            ], 
            [
              -63.37262936057894, 
              46.17194244891744
            ], 
            [
              -63.399891733584276, 
              46.181341870641305
            ], 
            [
              -63.41201738727433, 
              46.18349845355085
            ], 
            [
              -63.41836505019432, 
              46.18561435632459
            ], 
            [
              -63.42284095991417, 
              46.195013764459674
            ], 
            [
              -63.42882238095662, 
              46.19717027894243
            ], 
            [
              -63.45026607267592, 
              46.19599028320068
            ], 
            [
              -63.455799919950636, 
              46.19717027894243
            ], 
            [
              -63.465687624837436, 
              46.20457590332065
            ], 
            [
              -63.48058020613914, 
              46.219916080792906
            ], 
            [
              -63.49058995991313, 
              46.2238222994536
            ], 
            [
              -63.49917559121565, 
              46.2224795749317
            ], 
            [
              -63.52114822832266, 
              46.21308011251025
            ], 
            [
              -63.534982874206136, 
              46.21084218284113
            ], 
            [
              -63.54531815923012, 
              46.21369048734253
            ], 
            [
              -63.55638585694094, 
              46.21930569499484
            ], 
            [
              -63.56696529067262, 
              46.22308988967915
            ], 
            [
              -63.57591712167608, 
              46.22077057673111
            ], 
            [
              -63.58731033631987, 
              46.21625393541954
            ], 
            [
              -63.60212154542137, 
              46.21686431584134
            ], 
            [
              -63.627756300884855, 
              46.2238222994536
            ], 
            [
              -63.67564855600131, 
              46.24258044290177
            ], 
            [
              -63.69456947932861, 
              46.256537213581936
            ], 
            [
              -63.702259881611, 
              46.275702181838284
            ], 
            [
              -63.713042788228556, 
              46.289781030835194
            ], 
            [
              -63.737904452495755, 
              46.30239499151981
            ], 
            [
              -63.78477944714424, 
              46.3200137928183
            ], 
            [
              -63.80003819812932, 
              46.33185451608298
            ], 
            [
              -63.805897579477275, 
              46.343573282242126
            ], 
            [
              -63.80117756730715, 
              46.348781717520595
            ], 
            [
              -63.78477944123689, 
              46.34113194176128
            ], 
            [
              -63.805897564341706, 
              46.374701173806926
            ], 
            [
              -63.73932856569834, 
              46.356675486606996
            ], 
            [
              -63.71589107560684, 
              46.35419341581612
            ], 
            [
              -63.764881985895535, 
              46.382147581116094
            ], 
            [
              -63.75206461185077, 
              46.38727455688497
            ], 
            [
              -63.74551349679623, 
              46.389064898870075
            ], 
            [
              -63.73692786310194, 
              46.38898346371679
            ], 
            [
              -63.736927851478335, 
              46.3964297231685
            ], 
            [
              -63.766835101547265, 
              46.39935947133889
            ], 
            [
              -63.83991449894621, 
              46.39695868017978
            ], 
            [
              -63.871449360024044, 
              46.40936923849212
            ], 
            [
              -63.88048257290686, 
              46.40814856054802
            ], 
            [
              -63.88731846700184, 
              46.40493393022214
            ], 
            [
              -63.888417095599046, 
              46.40257389559125
            ], 
            [
              -63.8953344348983, 
              46.40595122860154
            ], 
            [
              -63.904652482799136, 
              46.413397552834425
            ], 
            [
              -63.908314576303766, 
              46.41559477956577
            ], 
            [
              -63.92662515767062, 
              46.42194252261954
            ], 
            [
              -63.934478289575445, 
              46.42304100848256
            ], 
            [
              -63.95612544861155, 
              46.409409881821105
            ], 
            [
              -63.98717202293344, 
              46.39960363093925
            ], 
            [
              -64.08267167259889, 
              46.409409881821105
            ], 
            [
              -64.11025954881406, 
              46.40810776399938
            ], 
            [
              -64.1245011098162, 
              46.409654048639545
            ], 
            [
              -64.1342667252836, 
              46.41559477956577
            ], 
            [
              -64.13752191443179, 
              46.429022465987984
            ], 
            [
              -64.13345290661475, 
              46.44261296651481
            ], 
            [
              -64.12486729082048, 
              46.44969303494411
            ], 
            [
              -64.11436928372092, 
              46.44354892963205
            ], 
            [
              -64.11070716243063, 
              46.473822336608436
            ], 
            [
              -64.11461339785744, 
              46.51264065888943
            ], 
            [
              -64.1080216060206, 
              46.54437895291249
            ], 
            [
              -64.0727432627156, 
              46.55341210073759
            ], 
            [
              -64.07689365474522, 
              46.56293358735418
            ], 
            [
              -64.07896885565734, 
              46.56647364124488
            ], 
            [
              -64.06191973430224, 
              46.56997306990119
            ], 
            [
              -64.06383217993591, 
              46.578762158658684
            ], 
            [
              -64.07331296110509, 
              46.58926017335903
            ], 
            [
              -64.07896884953331, 
              46.597805005893704
            ], 
            [
              -64.07892817579024, 
              46.6188825207979
            ], 
            [
              -64.07713779448564, 
              46.6282412013211
            ], 
            [
              -64.07274330251754, 
              46.64215731790926
            ], 
            [
              -64.13101149372902, 
              46.599107090448385
            ], 
            [
              -64.14476474850301, 
              46.597805005893704
            ], 
            [
              -64.15330968760735, 
              46.60407132487517
            ], 
            [
              -64.16551670871677, 
              46.60956446405327
            ], 
            [
              -64.17845616303036, 
              46.613470717367676
            ], 
            [
              -64.1894424895385, 
              46.614894867635
            ], 
            [
              -64.19688882729088, 
              46.61782467696205
            ], 
            [
              -64.21841388325363, 
              46.63141514925758
            ], 
            [
              -64.23045813548924, 
              46.63532135221373
            ], 
            [
              -64.3226212214871, 
              46.63532135221373
            ], 
            [
              -64.36432856453203, 
              46.626939156302946
            ], 
            [
              -64.38304601723326, 
              46.62783435007289
            ], 
            [
              -64.40241452656656, 
              46.64215731790926
            ], 
            [
              -64.4168188399602, 
              46.68276608279319
            ], 
            [
              -64.4015193188867, 
              46.72296780081944
            ], 
            [
              -64.36945552089182, 
              46.758775101822174
            ], 
            [
              -64.33348546336748, 
              46.78620021806329
            ], 
            [
              -64.2909236359217, 
              46.80955639177226
            ], 
            [
              -64.27232822932532, 
              46.82501856052526
            ], 
            [
              -64.26455644071478, 
              46.84454986381898
            ], 
            [
              -64.25942950823263, 
              46.866400500891345
            ], 
            [
              -64.24693765947576, 
              46.88629799482391
            ], 
            [
              -64.23131264084611, 
              46.9033064114659
            ], 
            [
              -64.1626684438305, 
              46.95620356730241
            ], 
            [
              -64.05272378477461, 
              47.021470501609805
            ], 
            [
              -63.99705968523332, 
              47.067328155314044
            ], 
            [
              -63.98851479044078, 
              47.054266699924334
            ], 
            [
              -63.985340975285055, 
              47.04718665386778
            ], 
            [
              -63.98338783975152, 
              47.04002516868668
            ], 
            [
              -63.99592035673076, 
              47.00971095455572
            ], 
            [
              -63.997792126003205, 
              46.97101472846576
            ], 
            [
              -63.99006098092382, 
              46.933335626424345
            ], 
            [
              -63.973215305641794, 
              46.90595125558618
            ], 
            [
              -63.97484293161169, 
              46.89398841947297
            ], 
            [
              -64.02497310821946, 
              46.848293354050526
            ], 
            [
              -64.02843174835704, 
              46.842271171899945
            ], 
            [
              -64.03490146895966, 
              46.82648339838442
            ], 
            [
              -64.03799395364274, 
              46.820949635115035
            ], 
            [
              -64.0423071017624, 
              46.82086824791083
            ], 
            [
              -64.04893957583342, 
              46.8222516795818
            ], 
            [
              -64.05553139557766, 
              46.81932204844868
            ], 
            [
              -64.05972247039864, 
              46.80662672100725
            ], 
            [
              -64.06395421447796, 
              46.80853908868347
            ], 
            [
              -64.07481847381185, 
              46.811509469028785
            ], 
            [
              -64.07896884938368, 
              46.81346255796632
            ], 
            [
              -64.07900958419675, 
              46.80272048300021
            ], 
            [
              -64.08136961287533, 
              46.79401280670764
            ], 
            [
              -64.08592686532937, 
              46.78668848979323
            ], 
            [
              -64.09325110071939, 
              46.77997466379027
            ], 
            [
              -64.07192952154624, 
              46.757757956488305
            ], 
            [
              -64.05606038148191, 
              46.74884682336549
            ], 
            [
              -64.0349014858224, 
              46.74518461149164
            ], 
            [
              -64.01451575844425, 
              46.74819571614166
            ], 
            [
              -63.99933834164843, 
              46.753119199597315
            ], 
            [
              -63.98558509960655, 
              46.7541364840901
            ], 
            [
              -63.96979731983278, 
              46.74518461149164
            ], 
            [
              -63.974720862354175, 
              46.73859291716413
            ], 
            [
              -63.983387822415104, 
              46.71727121951132
            ], 
            [
              -63.960194481091825, 
              46.70766840142178
            ], 
            [
              -63.939035594666265, 
              46.69525783894314
            ], 
            [
              -63.9195450502053, 
              46.68024322900119
            ], 
            [
              -63.901478658101965, 
              46.66266513898309
            ], 
            [
              -63.886586070414424, 
              46.651190505600425
            ], 
            [
              -63.88141842272278, 
              46.642889712782114
            ], 
            [
              -63.88097080763885, 
              46.62913639859681
            ], 
            [
              -63.88581298116349, 
              46.61782467696205
            ], 
            [
              -63.89403235123041, 
              46.615383192976246
            ], 
            [
              -63.904286244892894, 
              46.61977769288565
            ], 
            [
              -63.91510980562582, 
              46.62913639859681
            ], 
            [
              -63.9124649437877, 
              46.61664452438019
            ], 
            [
              -63.90664631229011, 
              46.6079776672356
            ], 
            [
              -63.897450328248866, 
              46.60293204119298
            ], 
            [
              -63.88467365201149, 
              46.60126378947587
            ], 
            [
              -63.871205215326405, 
              46.60317619500552
            ], 
            [
              -63.867054804941105, 
              46.608140336580995
            ], 
            [
              -63.86558999434733, 
              46.61469152684147
            ], 
            [
              -63.860463025051814, 
              46.62173087374019
            ], 
            [
              -63.862863756308364, 
              46.623439897210865
            ], 
            [
              -63.861154737244554, 
              46.629706084797505
            ], 
            [
              -63.854847763491314, 
              46.632879893248735
            ], 
            [
              -63.8434138479826, 
              46.62543361555518
            ], 
            [
              -63.83690345157245, 
              46.6182315159677
            ], 
            [
              -63.833648214212644, 
              46.61237206940022
            ], 
            [
              -63.836171026013474, 
              46.607001038986624
            ], 
            [
              -63.84683185499965, 
              46.60126378947587
            ], 
            [
              -63.8436579892808, 
              46.59723537427292
            ], 
            [
              -63.84194900149581, 
              46.59365463571191
            ], 
            [
              -63.83926348913597, 
              46.59048089416693
            ], 
            [
              -63.83315994913658, 
              46.58759183656665
            ], 
            [
              -63.83315995591876, 
              46.58075591669189
            ], 
            [
              -63.84528559361161, 
              46.5781924060861
            ], 
            [
              -63.851714649128155, 
              46.57367585084945
            ], 
            [
              -63.88097082947346, 
              46.52240631061331
            ], 
            [
              -63.89452062313138, 
              46.51666897694382
            ], 
            [
              -63.921620238055766, 
              46.51117582792474
            ], 
            [
              -63.942046685843415, 
              46.50031160829349
            ], 
            [
              -63.93561764035777, 
              46.478338929847446
            ], 
            [
              -63.919789168517276, 
              46.49266179162674
            ], 
            [
              -63.90200761696211, 
              46.498765369433045
            ], 
            [
              -63.86046302670849, 
              46.50629305297137
            ], 
            [
              -63.84406491262442, 
              46.51569246169914
            ], 
            [
              -63.83503172330959, 
              46.51972081632164
            ], 
            [
              -63.82575434311492, 
              46.519273133745536
            ], 
            [
              -63.818511516998164, 
              46.512437226809276
            ], 
            [
              -63.812977668637515, 
              46.50067780361453
            ], 
            [
              -63.81297769260265, 
              46.489488085314704
            ], 
            [
              -63.82262121991744, 
              46.48456451219272
            ], 
            [
              -63.832997200382685, 
              46.48191966496947
            ], 
            [
              -63.833648217209415, 
              46.47565332673979
            ], 
            [
              -63.82884679611294, 
              46.467840854348694
            ], 
            [
              -63.822621233016626, 
              46.46063876438643
            ], 
            [
              -63.81338459152167, 
              46.45587805409482
            ], 
            [
              -63.729562931690296, 
              46.44334538581042
            ], 
            [
              -63.708892385172106, 
              46.44415925505752
            ], 
            [
              -63.69664463252697, 
              46.4572206976887
            ], 
            [
              -63.71320556300309, 
              46.477606588136325
            ], 
            [
              -63.73180090046453, 
              46.49603910328628
            ], 
            [
              -63.73424229104439, 
              46.51068750121517
            ], 
            [
              -63.70225987714951, 
              46.519273133745536
            ], 
            [
              -63.70225988461467, 
              46.525458048675674
            ], 
            [
              -63.72199458659844, 
              46.531805709714426
            ], 
            [
              -63.730132617577745, 
              46.5329450579969
            ], 
            [
              -63.71080482716298, 
              46.55841708473476
            ], 
            [
              -63.67686924380794, 
              46.568060547659286
            ], 
            [
              -63.638905408068325, 
              46.56704337384569
            ], 
            [
              -63.53673257974453, 
              46.54466387701316
            ], 
            [
              -63.520985473527375, 
              46.53632231401033
            ], 
            [
              -63.517323400843644, 
              46.53363686185091
            ], 
            [
              -63.51325437730592, 
              46.53270095544709
            ], 
            [
              -63.50397701857217, 
              46.5329450579969
            ], 
            [
              -63.49474037620892, 
              46.53115472104354
            ], 
            [
              -63.493763810001006, 
              46.526922941889836
            ], 
            [
              -63.49620521749445, 
              46.52236565368987
            ], 
            [
              -63.4974258932069, 
              46.519273133745536
            ], 
            [
              -63.496327257595006, 
              46.512844091092695
            ], 
            [
              -63.4989314421668, 
              46.50649648133616
            ], 
            [
              -63.50080318042868, 
              46.49966052718963
            ], 
            [
              -63.49742593839082, 
              46.49201087871674
            ], 
            [
              -63.48192297208225, 
              46.49262113829719
            ], 
            [
              -63.456613758908695, 
              46.46743404438442
            ], 
            [
              -63.44554603493567, 
              46.46747469467933
            ], 
            [
              -63.432606582370234, 
              46.48371004678277
            ], 
            [
              -63.42894443809754, 
              46.49746321446291
            ], 
            [
              -63.438099716723826, 
              46.505845388269854
            ], 
            [
              -63.46324622966675, 
              46.50629305297137
            ], 
            [
              -63.436512852364125, 
              46.51251869167728
            ], 
            [
              -63.39903722069796, 
              46.512111674369834
            ], 
            [
              -63.36091059195253, 
              46.506903338434654
            ], 
            [
              -63.33234613079153, 
              46.498846677580055
            ], 
            [
              -63.317779119825595, 
              46.48899979005591
            ], 
            [
              -63.31358801837373, 
              46.478338929847446
            ], 
            [
              -63.312082470364, 
              46.46596910305834
            ], 
            [
              -63.30557205924259, 
              46.450995159062664
            ], 
            [
              -63.30215409124312, 
              46.450995159062664
            ], 
            [
              -63.28034418219711, 
              46.43927637568004
            ], 
            [
              -63.263539216525544, 
              46.42597083276491
            ], 
            [
              -63.25719154921491, 
              46.42308180682521
            ], 
            [
              -63.25035556932808, 
              46.42987694661651
            ], 
            [
              -63.24502516444728, 
              46.41254296032116
            ], 
            [
              -63.23810786952915, 
              46.407416063864034
            ], 
            [
              -63.22874913091363, 
              46.40997950242286
            ], 
            [
              -63.216216595365424, 
              46.41559477956577
            ], 
            [
              -63.21422277698786, 
              46.41791410691381
            ], 
            [
              -63.21255451238209, 
              46.42182043477055
            ], 
            [
              -63.20933995235248, 
              46.42621485811498
            ], 
            [
              -63.20254469734975, 
              46.42987694661651
            ], 
            [
              -63.19473220048033, 
              46.431138348629226
            ], 
            [
              -63.08112546459831, 
              46.42088453163815
            ], 
            [
              -62.95319577714799, 
              46.424058361099846
            ], 
            [
              -62.849720808322814, 
              46.43740462902606
            ], 
            [
              -62.84186761771972, 
              46.43085352045426
            ], 
            [
              -62.833404115254176, 
              46.41950108073491
            ], 
            [
              -62.823801207124376, 
              46.415106437564276
            ], 
            [
              -62.812123147526734, 
              46.42987694661651
            ], 
            [
              -62.81956944133416, 
              46.43740462902606
            ], 
            [
              -62.76451575107434, 
              46.4490420514581
            ], 
            [
              -62.58560133762941, 
              46.42987694661651
            ], 
            [
              -62.585601342422315, 
              46.43740462902606
            ], 
            [
              -62.67723549766134, 
              46.44765863901342
            ], 
            [
              -62.70225986697147, 
              46.4572206976887
            ], 
            [
              -62.67414301331974, 
              46.46442286821358
            ], 
            [
              -62.611683743128445, 
              46.46759679899081
            ], 
            [
              -62.58560136439241, 
              46.478338929847446
            ], 
            [
              -62.56578531180353, 
              46.47089271169228
            ], 
            [
              -62.54206292894662, 
              46.471665689638144
            ], 
            [
              -62.51691644575965, 
              46.47581608530769
            ], 
            [
              -62.3572891893783, 
              46.47931549020299
            ], 
            [
              -62.26455646038452, 
              46.47378168554945
            ], 
            [
              -62.1851700650194, 
              46.487005963440936
            ], 
            [
              -62.09911048821531, 
              46.48371004678277
            ], 
            [
              -62.00401770862852, 
              46.46405671224824
            ]
          ]
        ]
      }, 
      "type": "Feature", 
      "properties": {
        "source": "https://simplemaps.com", 
        "id": "CAPE", 
        "name": "Prince Edward Island"
      }, 
      "id": 13
    }
  ]
}