{
  "type": "FeatureCollection", 
  "features": [
    {
      "geometry": {
        "type": "Polygon", 
        "coordinates": [
          [
            [
              -109.99932101601898, 
              48.99261780275357
            ], 
            [
              -109.99935261171187, 
              48.992978862399944
            ], 
            [
              -109.99997278177501, 
              49.0000844416262
            ], 
            [
              -109.99997264514894, 
              49.34381004732173
            ], 
            [
              -109.99997258653754, 
              49.687561599957256
            ], 
            [
              -109.99997270417853, 
              50.0313133819091
            ], 
            [
              -109.9999726933714, 
              50.37506499567859
            ], 
            [
              -109.99997269996439, 
              50.7188166316894
            ], 
            [
              -109.99997272501564, 
              51.062568290313344
            ], 
            [
              -109.99997273910769, 
              51.40626825877082
            ], 
            [
              -109.99997272848638, 
              51.75007154979086
            ], 
            [
              -109.99997270333962, 
              52.0938231461238
            ], 
            [
              -109.99997265450469, 
              52.43757471714212
            ], 
            [
              -109.99997281903295, 
              52.78132653567534
            ], 
            [
              -109.99997261866304, 
              53.12507793147068
            ], 
            [
              -109.99997269657226, 
              53.46882964951998
            ], 
            [
              -109.99997281791345, 
              53.812555575165455
            ], 
            [
              -109.99997273017105, 
              54.15633294216414
            ], 
            [
              -109.99997258293385, 
              54.50003273031106
            ], 
            [
              -109.9999726233922, 
              54.84383608012
            ], 
            [
              -109.99997270664844, 
              55.18758779851331
            ], 
            [
              -109.99997272030113, 
              55.53133944065824
            ], 
            [
              -109.99997267072817, 
              55.87506517785691
            ], 
            [
              -109.99997272914285, 
              56.21881686631205
            ], 
            [
              -109.99997264398408, 
              56.562542567213164
            ], 
            [
              -109.99997274819958, 
              56.90629430312561
            ], 
            [
              -109.99997268484503, 
              57.25009754122079
            ], 
            [
              -109.99997272297001, 
              57.593849208606024
            ], 
            [
              -109.9999728430043, 
              57.93757511774949
            ], 
            [
              -109.99997285667745, 
              58.28132675870894
            ], 
            [
              -109.99997269449374, 
              58.625052385643194
            ], 
            [
              -109.99997255692392, 
              58.96880387784701
            ], 
            [
              -109.99997259592527, 
              59.31255554462193
            ], 
            [
              -109.9999727860572, 
              59.65635903312218
            ], 
            [
              -109.99997270417587, 
              60.00005890629244
            ], 
            [
              -109.50008073623589, 
              60.00005890629244
            ], 
            [
              -109.00013709235189, 
              60.00005890629244
            ], 
            [
              -108.50027096193429, 
              60.00005890629244
            ], 
            [
              -108.00037899489364, 
              60.00005890629244
            ], 
            [
              -107.5004870269537, 
              60.00005890629244
            ], 
            [
              -107.00056922059204, 
              60.00005890629244
            ], 
            [
              -106.50070309107379, 
              60.00005890629244
            ], 
            [
              -106.00078528471211, 
              60.00005890629244
            ], 
            [
              -105.50086747924973, 
              60.00005890629244
            ], 
            [
              -105.00097551130979, 
              60.00005890629244
            ], 
            [
              -104.5010835442691, 
              60.00005890629244
            ], 
            [
              -104.00119157632916, 
              60.00005890629244
            ], 
            [
              -103.50129960838919, 
              60.00005890629244
            ], 
            [
              -103.00138180202755, 
              60.00005890629244
            ], 
            [
              -102.50146399566586, 
              60.00005890629244
            ], 
            [
              -102.00159786704694, 
              60.00005890629244
            ], 
            [
              -102.00159776505575, 
              59.88642232545892
            ], 
            [
              -102.00157216070582, 
              59.772837772001424
            ], 
            [
              -102.00157208570494, 
              59.65925289601497
            ], 
            [
              -102.00157194781696, 
              59.54566795375639
            ], 
            [
              -102.00149464220141, 
              58.97795088700371
            ], 
            [
              -102.00141688728515, 
              58.41018166980264
            ], 
            [
              -102.00133959603713, 
              57.84246462799188
            ], 
            [
              -102.00126199620148, 
              57.27474724798781
            ], 
            [
              -102.00118449519641, 
              56.9101700351043
            ], 
            [
              -102.00113276292596, 
              56.54559274213584
            ], 
            [
              -102.0011069247893, 
              56.18101551233502
            ], 
            [
              -102.00105529011421, 
              55.81649000743374
            ], 
            [
              -101.98103065153516, 
              55.60223949294172
            ], 
            [
              -101.96105769651182, 
              55.387937313890895
            ], 
            [
              -101.94108476956612, 
              55.17368684248521
            ], 
            [
              -101.92106019982255, 
              54.95943640915528
            ], 
            [
              -101.90108728529357, 
              54.74513427605527
            ], 
            [
              -101.88111430335029, 
              54.530883739149324
            ], 
            [
              -101.86108962815406, 
              54.31663318398699
            ], 
            [
              -101.84111660124645, 
              54.10233091475151
            ], 
            [
              -101.82114389305154, 
              53.888080708162526
            ], 
            [
              -101.80111924035867, 
              53.673830177672656
            ], 
            [
              -101.78114612264356, 
              53.45952779788907
            ], 
            [
              -101.76117318991786, 
              53.24527731948765
            ], 
            [
              -101.74114858529956, 
              53.03102684445896
            ], 
            [
              -101.72117565495094, 
              52.816724694514626
            ], 
            [
              -101.7012027822583, 
              52.60247429069264
            ], 
            [
              -101.6811781181326, 
              52.38822374394422
            ], 
            [
              -101.6611535885539, 
              52.173921690182205
            ], 
            [
              -101.64118054990405, 
              51.95967107758232
            ], 
            [
              -101.62120765284112, 
              51.74542064657528
            ], 
            [
              -101.60118297389008, 
              51.531118400518494
            ], 
            [
              -101.58121004054169, 
              51.316867923288214
            ], 
            [
              -101.56121129831597, 
              51.102617481578484
            ], 
            [
              -101.5412125349495, 
              50.88834117796109
            ], 
            [
              -101.52121374363563, 
              50.674064834534796
            ], 
            [
              -101.50126665975945, 
              50.459814373444914
            ], 
            [
              -101.48124203292429, 
              50.2455380334847
            ], 
            [
              -101.46126909030151, 
              50.031261703950385
            ], 
            [
              -101.44127021674173, 
              49.81701108401541
            ], 
            [
              -101.42127152732589, 
              49.60273488407338
            ], 
            [
              -101.40127275474059, 
              49.388484403716696
            ], 
            [
              -101.38129983938362, 
              49.17420811597243
            ], 
            [
              -101.36437569066157, 
              48.99305621028785
            ], 
            [
              -101.36433957474695, 
              48.99266947107086
            ], 
            [
              -101.55157439061351, 
              48.99266947107086
            ], 
            [
              -101.77138009545685, 
              48.99266947107086
            ], 
            [
              -101.99118580030016, 
              48.99266947107086
            ], 
            [
              -102.21093982814357, 
              48.99266947107086
            ], 
            [
              -102.43074553897165, 
              48.99261780275357
            ], 
            [
              -102.65057708182778, 
              48.99261780275357
            ], 
            [
              -102.87038278668405, 
              48.99261780275357
            ], 
            [
              -103.09024016754009, 
              48.99261780275357
            ], 
            [
              -103.31004587139627, 
              48.99261780275357
            ], 
            [
              -103.52985157625244, 
              48.99261780275357
            ], 
            [
              -103.74968311910861, 
              48.99261780275357
            ], 
            [
              -103.96948882396474, 
              48.99261780275357
            ], 
            [
              -104.04757437918951, 
              48.99261780275357
            ], 
            [
              -104.18924285282091, 
              48.99261780275357
            ], 
            [
              -104.4090485566771, 
              48.99261780275357
            ], 
            [
              -104.62885426153332, 
              48.99261780275357
            ], 
            [
              -104.84871164238946, 
              48.99261780275357
            ], 
            [
              -105.05750235032632, 
              48.99261780275357
            ], 
            [
              -105.2883230521017, 
              48.99261780275357
            ], 
            [
              -105.50815459395791, 
              48.99261780275357
            ], 
            [
              -105.72793446081411, 
              48.99261780275357
            ], 
            [
              -105.94774016567028, 
              48.99261780275357
            ], 
            [
              -106.16752003152641, 
              48.99261780275357
            ], 
            [
              -106.38732573638258, 
              48.99261780275357
            ], 
            [
              -106.60718311723873, 
              48.99261780275357
            ], 
            [
              -106.82698882309485, 
              48.99261780275357
            ], 
            [
              -107.04679452695099, 
              48.99261780275357
            ], 
            [
              -107.26662606880718, 
              48.99261780275357
            ], 
            [
              -107.4864317746634, 
              48.99261780275357
            ], 
            [
              -107.70623747951957, 
              48.99261780275357
            ], 
            [
              -107.92604318337567, 
              48.99261780275357
            ], 
            [
              -108.14579721123185, 
              48.99261780275357
            ], 
            [
              -108.36562875408804, 
              48.99261780275357
            ], 
            [
              -108.58543445894423, 
              48.99261780275357
            ], 
            [
              -108.80524016380039, 
              48.99261780275357
            ], 
            [
              -109.0250458686565, 
              48.99261780275357
            ], 
            [
              -109.24485157351268, 
              48.99261780275357
            ], 
            [
              -109.46470895436887, 
              48.99261780275357
            ], 
            [
              -109.6845404972249, 
              48.99261780275357
            ], 
            [
              -109.90426868708124, 
              48.99261780275357
            ], 
            [
              -109.99932101601898, 
              48.99261780275357
            ]
          ]
        ]
      }, 
      "type": "Feature", 
      "properties": {
        "source": "https://simplemaps.com", 
        "id": "CASK", 
        "name": "Saskatchewan"
      }, 
      "id": 3
    }
  ]
}